<?xml version="1.0" encoding="UTF-8"?>
<gpx version="1.1" creator="gpx.studio, corrected against the official course map" xmlns="http://www.topografix.com/GPX/1/1" xmlns:xsi="http://www.w3.org/2001/XMLSchema-instance" xsi:schemaLocation="http://www.topografix.com/GPX/1/1 http://www.topografix.com/GPX/1/1/gpx.xsd">
  <metadata>
    <name>Demi-marathon Shop Santé 2026 – 21,1 km</name>
    <desc>Start on Rue de l'Exposition to the finish line at Place Jean-Béliveau. Checked against the official 2026 course map.</desc>
  </metadata>
  <trk>
    <name>Demi-marathon Shop Santé 2026 – 21,1 km</name>
    <trkseg>
      <trkpt lat="46.8261248" lon="-71.2476877">
        <ele>10.5</ele>
      </trkpt>
      <trkpt lat="46.8255168" lon="-71.2473715">
        <ele>9.7</ele>
      </trkpt>
      <trkpt lat="46.8252054" lon="-71.2469011">
        <ele>8.1</ele>
      </trkpt>
      <trkpt lat="46.8250808" lon="-71.2466432">
        <ele>7.1</ele>
      </trkpt>
      <trkpt lat="46.8248835" lon="-71.2459451">
        <ele>7.0</ele>
      </trkpt>
      <trkpt lat="46.8245409" lon="-71.2449284">
        <ele>6.3</ele>
      </trkpt>
      <trkpt lat="46.8241568" lon="-71.2445190">
        <ele>6.0</ele>
      </trkpt>
      <trkpt lat="46.8236585" lon="-71.2441396">
        <ele>5.6</ele>
      </trkpt>
      <trkpt lat="46.8231394" lon="-71.2436996">
        <ele>5.2</ele>
      </trkpt>
      <trkpt lat="46.8227241" lon="-71.2431534">
        <ele>4.9</ele>
      </trkpt>
      <trkpt lat="46.8224438" lon="-71.2423946">
        <ele>5.0</ele>
      </trkpt>
      <trkpt lat="46.8222697" lon="-71.2417331">
        <ele>5.4</ele>
      </trkpt>
      <trkpt lat="46.8222697" lon="-71.2417331">
        <ele>5.4</ele>
      </trkpt>
      <trkpt lat="46.8221467" lon="-71.2411010">
        <ele>4.9</ele>
      </trkpt>
      <trkpt lat="46.8220236" lon="-71.2404690">
        <ele>4.9</ele>
      </trkpt>
      <trkpt lat="46.8219005" lon="-71.2398369">
        <ele>3.3</ele>
      </trkpt>
      <trkpt lat="46.8217775" lon="-71.2392049">
        <ele>3.2</ele>
      </trkpt>
      <trkpt lat="46.8216963" lon="-71.2387883">
        <ele>6.5</ele>
      </trkpt>
      <trkpt lat="46.8216963" lon="-71.2387883">
        <ele>6.4</ele>
      </trkpt>
      <trkpt lat="46.8219175" lon="-71.2387577">
        <ele>6.4</ele>
      </trkpt>
      <trkpt lat="46.8223743" lon="-71.2385412">
        <ele>6.8</ele>
      </trkpt>
      <trkpt lat="46.8227385" lon="-71.2382344">
        <ele>7.3</ele>
      </trkpt>
      <trkpt lat="46.8229361" lon="-71.2378825">
        <ele>7.3</ele>
      </trkpt>
      <trkpt lat="46.8230040" lon="-71.2375307">
        <ele>7.7</ele>
      </trkpt>
      <trkpt lat="46.8231522" lon="-71.2372871">
        <ele>7.4</ele>
      </trkpt>
      <trkpt lat="46.8232880" lon="-71.2369443">
        <ele>6.9</ele>
      </trkpt>
      <trkpt lat="46.8233312" lon="-71.2365473">
        <ele>7.3</ele>
      </trkpt>
      <trkpt lat="46.8233373" lon="-71.2361593">
        <ele>7.0</ele>
      </trkpt>
      <trkpt lat="46.8232694" lon="-71.2358526">
        <ele>7.4</ele>
      </trkpt>
      <trkpt lat="46.8232201" lon="-71.2355008">
        <ele>7.2</ele>
      </trkpt>
      <trkpt lat="46.8230596" lon="-71.2350406">
        <ele>7.2</ele>
      </trkpt>
      <trkpt lat="46.8228929" lon="-71.2346798">
        <ele>7.5</ele>
      </trkpt>
      <trkpt lat="46.8227200" lon="-71.2343460">
        <ele>7.3</ele>
      </trkpt>
      <trkpt lat="46.8225966" lon="-71.2339851">
        <ele>6.9</ele>
      </trkpt>
      <trkpt lat="46.8223928" lon="-71.2336423">
        <ele>6.4</ele>
      </trkpt>
      <trkpt lat="46.8222694" lon="-71.2334799">
        <ele>7.0</ele>
      </trkpt>
      <trkpt lat="46.8221644" lon="-71.2331280">
        <ele>6.9</ele>
      </trkpt>
      <trkpt lat="46.8218496" lon="-71.2326859">
        <ele>6.5</ele>
      </trkpt>
      <trkpt lat="46.8217879" lon="-71.2324875">
        <ele>6.3</ele>
      </trkpt>
      <trkpt lat="46.8217199" lon="-71.2321898">
        <ele>5.5</ele>
      </trkpt>
      <trkpt lat="46.8213495" lon="-71.2315040">
        <ele>4.3</ele>
      </trkpt>
      <trkpt lat="46.8209236" lon="-71.2307822">
        <ele>4.4</ele>
      </trkpt>
      <trkpt lat="46.8207384" lon="-71.2305659">
        <ele>5.1</ele>
      </trkpt>
      <trkpt lat="46.8205346" lon="-71.2300966">
        <ele>4.4</ele>
      </trkpt>
      <trkpt lat="46.8201704" lon="-71.2295012">
        <ele>4.3</ele>
      </trkpt>
      <trkpt lat="46.8198062" lon="-71.2289238">
        <ele>4.9</ele>
      </trkpt>
      <trkpt lat="46.8193678" lon="-71.2282200">
        <ele>5.8</ele>
      </trkpt>
      <trkpt lat="46.8190715" lon="-71.2273990">
        <ele>5.4</ele>
      </trkpt>
      <trkpt lat="46.8187566" lon="-71.2269661">
        <ele>5.6</ele>
      </trkpt>
      <trkpt lat="46.8186023" lon="-71.2266864">
        <ele>5.7</ele>
      </trkpt>
      <trkpt lat="46.8183430" lon="-71.2264609">
        <ele>5.9</ele>
      </trkpt>
      <trkpt lat="46.8181640" lon="-71.2260368">
        <ele>5.8</ele>
      </trkpt>
      <trkpt lat="46.8181454" lon="-71.2255406">
        <ele>5.8</ele>
      </trkpt>
      <trkpt lat="46.8181640" lon="-71.2251346">
        <ele>5.9</ele>
      </trkpt>
      <trkpt lat="46.8182936" lon="-71.2245662">
        <ele>5.5</ele>
      </trkpt>
      <trkpt lat="46.8184541" lon="-71.2241242">
        <ele>5.7</ele>
      </trkpt>
      <trkpt lat="46.8187258" lon="-71.2239077">
        <ele>5.3</ele>
      </trkpt>
      <trkpt lat="46.8188369" lon="-71.2235378">
        <ele>6.1</ele>
      </trkpt>
      <trkpt lat="46.8189542" lon="-71.2229874">
        <ele>6.0</ele>
      </trkpt>
      <trkpt lat="46.8190653" lon="-71.2224551">
        <ele>4.9</ele>
      </trkpt>
      <trkpt lat="46.8189727" lon="-71.2222658">
        <ele>4.9</ele>
      </trkpt>
      <trkpt lat="46.8190406" lon="-71.2220131">
        <ele>5.0</ele>
      </trkpt>
      <trkpt lat="46.8191394" lon="-71.2217244">
        <ele>5.0</ele>
      </trkpt>
      <trkpt lat="46.8193308" lon="-71.2214267">
        <ele>5.4</ele>
      </trkpt>
      <trkpt lat="46.8195407" lon="-71.2208582">
        <ele>6.2</ele>
      </trkpt>
      <trkpt lat="46.8196642" lon="-71.2202899">
        <ele>6.4</ele>
      </trkpt>
      <trkpt lat="46.8198309" lon="-71.2195681">
        <ele>6.4</ele>
      </trkpt>
      <trkpt lat="46.8199173" lon="-71.2192434">
        <ele>6.3</ele>
      </trkpt>
      <trkpt lat="46.8198617" lon="-71.2189998">
        <ele>6.4</ele>
      </trkpt>
      <trkpt lat="46.8199049" lon="-71.2186480">
        <ele>6.4</ele>
      </trkpt>
      <trkpt lat="46.8200716" lon="-71.2183773">
        <ele>6.3</ele>
      </trkpt>
      <trkpt lat="46.8202074" lon="-71.2181428">
        <ele>5.8</ele>
      </trkpt>
      <trkpt lat="46.8202877" lon="-71.2173758">
        <ele>6.2</ele>
      </trkpt>
      <trkpt lat="46.8203865" lon="-71.2167894">
        <ele>5.8</ele>
      </trkpt>
      <trkpt lat="46.8205285" lon="-71.2161578">
        <ele>5.6</ele>
      </trkpt>
      <trkpt lat="46.8206396" lon="-71.2159054">
        <ele>5.8</ele>
      </trkpt>
      <trkpt lat="46.8206698" lon="-71.2157205">
        <ele>6.3</ele>
      </trkpt>
      <trkpt lat="46.8205223" lon="-71.2156167">
        <ele>7.0</ele>
      </trkpt>
      <trkpt lat="46.8201940" lon="-71.2155032">
        <ele>6.7</ele>
      </trkpt>
      <trkpt lat="46.8198453" lon="-71.2153798">
        <ele>7.0</ele>
      </trkpt>
      <trkpt lat="46.8194913" lon="-71.2152468">
        <ele>7.2</ele>
      </trkpt>
      <trkpt lat="46.8181819" lon="-71.2124365">
        <ele>5.8</ele>
      </trkpt>
      <trkpt lat="46.8178985" lon="-71.2112678">
        <ele>4.8</ele>
      </trkpt>
      <trkpt lat="46.8176577" lon="-71.2102213">
        <ele>5.0</ele>
      </trkpt>
      <trkpt lat="46.8174416" lon="-71.2096982">
        <ele>4.8</ele>
      </trkpt>
      <trkpt lat="46.8170835" lon="-71.2094908">
        <ele>5.0</ele>
      </trkpt>
      <trkpt lat="46.8167008" lon="-71.2097436">
        <ele>8.7</ele>
      </trkpt>
      <trkpt lat="46.8162624" lon="-71.2107362">
        <ele>18.2</ele>
      </trkpt>
      <trkpt lat="46.8158364" lon="-71.2116925">
        <ele>20.1</ele>
      </trkpt>
      <trkpt lat="46.8157191" lon="-71.2117915">
        <ele>20.7</ele>
      </trkpt>
      <trkpt lat="46.8158364" lon="-71.2113402">
        <ele>23.2</ele>
      </trkpt>
      <trkpt lat="46.8160834" lon="-71.2106906">
        <ele>24.1</ele>
      </trkpt>
      <trkpt lat="46.8162624" lon="-71.2102215">
        <ele>22.8</ele>
      </trkpt>
      <trkpt lat="46.8163674" lon="-71.2097524">
        <ele>22.5</ele>
      </trkpt>
      <trkpt lat="46.8163488" lon="-71.2093735">
        <ele>21.9</ele>
      </trkpt>
      <trkpt lat="46.8162624" lon="-71.2090126">
        <ele>22.1</ele>
      </trkpt>
      <trkpt lat="46.8161945" lon="-71.2084261">
        <ele>22.3</ele>
      </trkpt>
      <trkpt lat="46.8163118" lon="-71.2080924">
        <ele>21.9</ele>
      </trkpt>
      <trkpt lat="46.8162501" lon="-71.2077947">
        <ele>23.2</ele>
      </trkpt>
      <trkpt lat="46.8161698" lon="-71.2070728">
        <ele>24.7</ele>
      </trkpt>
      <trkpt lat="46.8161266" lon="-71.2061164">
        <ele>26.4</ele>
      </trkpt>
      <trkpt lat="46.8160278" lon="-71.2051240">
        <ele>27.9</ele>
      </trkpt>
      <trkpt lat="46.8158673" lon="-71.2044114">
        <ele>31.2</ele>
      </trkpt>
      <trkpt lat="46.8157623" lon="-71.2041860">
        <ele>31.5</ele>
      </trkpt>
      <trkpt lat="46.8157623" lon="-71.2041860">
        <ele>31.5</ele>
      </trkpt>
      <trkpt lat="46.8157623" lon="-71.2041860">
        <ele>31.5</ele>
      </trkpt>
      <trkpt lat="46.8153155" lon="-71.2041122">
        <ele>36.3</ele>
      </trkpt>
      <trkpt lat="46.8151807" lon="-71.2040900">
        <ele>37.1</ele>
      </trkpt>
      <trkpt lat="46.8147317" lon="-71.2041246">
        <ele>39.2</ele>
      </trkpt>
      <trkpt lat="46.8144974" lon="-71.2041427">
        <ele>39.5</ele>
      </trkpt>
      <trkpt lat="46.8144974" lon="-71.2041427">
        <ele>39.5</ele>
      </trkpt>
      <trkpt lat="46.8144974" lon="-71.2041427">
        <ele>39.5</ele>
      </trkpt>
      <trkpt lat="46.8141534" lon="-71.2045658">
        <ele>40.5</ele>
      </trkpt>
      <trkpt lat="46.8138094" lon="-71.2049890">
        <ele>41.6</ele>
      </trkpt>
      <trkpt lat="46.8137212" lon="-71.2050975">
        <ele>42.6</ele>
      </trkpt>
      <trkpt lat="46.8134326" lon="-71.2052946">
        <ele>46.7</ele>
      </trkpt>
      <trkpt lat="46.8134326" lon="-71.2052946">
        <ele>46.7</ele>
      </trkpt>
      <trkpt lat="46.8134326" lon="-71.2052946">
        <ele>46.7</ele>
      </trkpt>
      <trkpt lat="46.8131383" lon="-71.2053327">
        <ele>49.4</ele>
      </trkpt>
      <trkpt lat="46.8128110" lon="-71.2053679">
        <ele>52.6</ele>
      </trkpt>
      <trkpt lat="46.8124406" lon="-71.2054130">
        <ele>55.9</ele>
      </trkpt>
      <trkpt lat="46.8122306" lon="-71.2056928">
        <ele>57.2</ele>
      </trkpt>
      <trkpt lat="46.8119713" lon="-71.2064147">
        <ele>59.4</ele>
      </trkpt>
      <trkpt lat="46.8116502" lon="-71.2073711">
        <ele>60.8</ele>
      </trkpt>
      <trkpt lat="46.8112303" lon="-71.2081920">
        <ele>61.6</ele>
      </trkpt>
      <trkpt lat="46.8107240" lon="-71.2091032">
        <ele>64.9</ele>
      </trkpt>
      <trkpt lat="46.8101745" lon="-71.2100235">
        <ele>68.3</ele>
      </trkpt>
      <trkpt lat="46.8096249" lon="-71.2109437">
        <ele>72.1</ele>
      </trkpt>
      <trkpt lat="46.8090939" lon="-71.2117827">
        <ele>78.7</ele>
      </trkpt>
      <trkpt lat="46.8086555" lon="-71.2124322">
        <ele>79.2</ele>
      </trkpt>
      <trkpt lat="46.8082109" lon="-71.2118815">
        <ele>82.2</ele>
      </trkpt>
      <trkpt lat="46.8077292" lon="-71.2114305">
        <ele>85.7</ele>
      </trkpt>
      <trkpt lat="46.8073526" lon="-71.2113133">
        <ele>88.3</ele>
      </trkpt>
      <trkpt lat="46.8071426" lon="-71.2113855">
        <ele>88.7</ele>
      </trkpt>
      <trkpt lat="46.8068215" lon="-71.2115570">
        <ele>86.7</ele>
      </trkpt>
      <trkpt lat="46.8064881" lon="-71.2118908">
        <ele>84.8</ele>
      </trkpt>
      <trkpt lat="46.8060681" lon="-71.2123239">
        <ele>84.0</ele>
      </trkpt>
      <trkpt lat="46.8059076" lon="-71.2124682">
        <ele>83.5</ele>
      </trkpt>
      <trkpt lat="46.8055124" lon="-71.2123869">
        <ele>83.2</ele>
      </trkpt>
      <trkpt lat="46.8050184" lon="-71.2122515">
        <ele>82.7</ele>
      </trkpt>
      <trkpt lat="46.8046355" lon="-71.2122606">
        <ele>82.2</ele>
      </trkpt>
      <trkpt lat="46.8043576" lon="-71.2126396">
        <ele>82.4</ele>
      </trkpt>
      <trkpt lat="46.8040488" lon="-71.2130366">
        <ele>80.2</ele>
      </trkpt>
      <trkpt lat="46.8037215" lon="-71.2135419">
        <ele>76.4</ele>
      </trkpt>
      <trkpt lat="46.8033510" lon="-71.2140290">
        <ele>75.2</ele>
      </trkpt>
      <trkpt lat="46.8029187" lon="-71.2143718">
        <ele>76.1</ele>
      </trkpt>
      <trkpt lat="46.8024617" lon="-71.2146605">
        <ele>72.8</ele>
      </trkpt>
      <trkpt lat="46.8020109" lon="-71.2150034">
        <ele>68.9</ele>
      </trkpt>
      <trkpt lat="46.8015848" lon="-71.2154816">
        <ele>65.7</ele>
      </trkpt>
      <trkpt lat="46.8012081" lon="-71.2159868">
        <ele>63.6</ele>
      </trkpt>
      <trkpt lat="46.8007634" lon="-71.2167086">
        <ele>63.9</ele>
      </trkpt>
      <trkpt lat="46.8003188" lon="-71.2174394">
        <ele>62.8</ele>
      </trkpt>
      <trkpt lat="46.7998741" lon="-71.2181701">
        <ele>62.0</ele>
      </trkpt>
      <trkpt lat="46.7994480" lon="-71.2190092">
        <ele>63.5</ele>
      </trkpt>
      <trkpt lat="46.7989971" lon="-71.2201821">
        <ele>67.8</ele>
      </trkpt>
      <trkpt lat="46.7986018" lon="-71.2210391">
        <ele>68.7</ele>
      </trkpt>
      <trkpt lat="46.7984351" lon="-71.2216616">
        <ele>71.7</ele>
      </trkpt>
      <trkpt lat="46.7982560" lon="-71.2223111">
        <ele>74.7</ele>
      </trkpt>
      <trkpt lat="46.7979904" lon="-71.2230510">
        <ele>76.5</ele>
      </trkpt>
      <trkpt lat="46.7977125" lon="-71.2238178">
        <ele>79.8</ele>
      </trkpt>
      <trkpt lat="46.7974037" lon="-71.2245757">
        <ele>79.2</ele>
      </trkpt>
      <trkpt lat="46.7970393" lon="-71.2253515">
        <ele>80.7</ele>
      </trkpt>
      <trkpt lat="46.7967244" lon="-71.2260107">
        <ele>81.6</ele>
      </trkpt>
      <trkpt lat="46.7967244" lon="-71.2260107">
        <ele>81.6</ele>
      </trkpt>
      <trkpt lat="46.7968563" lon="-71.2260926">
        <ele>83.9</ele>
      </trkpt>
      <trkpt lat="46.7972200" lon="-71.2257063">
        <ele>84.1</ele>
      </trkpt>
      <trkpt lat="46.7973416" lon="-71.2255771">
        <ele>84.4</ele>
      </trkpt>
      <trkpt lat="46.7973416" lon="-71.2255771">
        <ele>84.4</ele>
      </trkpt>
      <trkpt lat="46.7977596" lon="-71.2253350">
        <ele>86.8</ele>
      </trkpt>
      <trkpt lat="46.7979812" lon="-71.2252066">
        <ele>88.3</ele>
      </trkpt>
      <trkpt lat="46.7979812" lon="-71.2252066">
        <ele>88.3</ele>
      </trkpt>
      <trkpt lat="46.7979812" lon="-71.2252066">
        <ele>88.3</ele>
      </trkpt>
      <trkpt lat="46.7984307" lon="-71.2252251">
        <ele>89.6</ele>
      </trkpt>
      <trkpt lat="46.7987643" lon="-71.2252388">
        <ele>90.4</ele>
      </trkpt>
      <trkpt lat="46.7992082" lon="-71.2253434">
        <ele>90.5</ele>
      </trkpt>
      <trkpt lat="46.7994480" lon="-71.2253999">
        <ele>90.2</ele>
      </trkpt>
      <trkpt lat="46.7994480" lon="-71.2253999">
        <ele>90.2</ele>
      </trkpt>
      <trkpt lat="46.7998119" lon="-71.2251905">
        <ele>90.9</ele>
      </trkpt>
      <trkpt lat="46.7998119" lon="-71.2251905">
        <ele>90.9</ele>
      </trkpt>
      <trkpt lat="46.8000546" lon="-71.2251260">
        <ele>91.4</ele>
      </trkpt>
      <trkpt lat="46.8000546" lon="-71.2251260">
        <ele>91.4</ele>
      </trkpt>
      <trkpt lat="46.8000546" lon="-71.2251260">
        <ele>91.4</ele>
      </trkpt>
      <trkpt lat="46.8003982" lon="-71.2255496">
        <ele>91.4</ele>
      </trkpt>
      <trkpt lat="46.8007419" lon="-71.2259732">
        <ele>91.6</ele>
      </trkpt>
      <trkpt lat="46.8007604" lon="-71.2259960">
        <ele>91.6</ele>
      </trkpt>
      <trkpt lat="46.8004719" lon="-71.2264998">
        <ele>91.3</ele>
      </trkpt>
      <trkpt lat="46.8001834" lon="-71.2270037">
        <ele>90.8</ele>
      </trkpt>
      <trkpt lat="46.7998949" lon="-71.2275076">
        <ele>90.1</ele>
      </trkpt>
      <trkpt lat="46.7996064" lon="-71.2280114">
        <ele>89.4</ele>
      </trkpt>
      <trkpt lat="46.7993179" lon="-71.2285153">
        <ele>88.8</ele>
      </trkpt>
      <trkpt lat="46.7990295" lon="-71.2290191">
        <ele>88.3</ele>
      </trkpt>
      <trkpt lat="46.7987410" lon="-71.2295230">
        <ele>88.1</ele>
      </trkpt>
      <trkpt lat="46.7984525" lon="-71.2300269">
        <ele>87.8</ele>
      </trkpt>
      <trkpt lat="46.7981640" lon="-71.2305307">
        <ele>87.6</ele>
      </trkpt>
      <trkpt lat="46.7978755" lon="-71.2310346">
        <ele>87.3</ele>
      </trkpt>
      <trkpt lat="46.7975871" lon="-71.2315384">
        <ele>87.1</ele>
      </trkpt>
      <trkpt lat="46.7972986" lon="-71.2320423">
        <ele>86.8</ele>
      </trkpt>
      <trkpt lat="46.7970101" lon="-71.2325462">
        <ele>86.9</ele>
      </trkpt>
      <trkpt lat="46.7970022" lon="-71.2325599">
        <ele>86.9</ele>
      </trkpt>
      <trkpt lat="46.7970022" lon="-71.2325599">
        <ele>86.9</ele>
      </trkpt>
      <trkpt lat="46.7970022" lon="-71.2325599">
        <ele>86.9</ele>
      </trkpt>
      <trkpt lat="46.7966855" lon="-71.2320937">
        <ele>86.5</ele>
      </trkpt>
      <trkpt lat="46.7964480" lon="-71.2317440">
        <ele>86.4</ele>
      </trkpt>
      <trkpt lat="46.7964480" lon="-71.2317440">
        <ele>86.4</ele>
      </trkpt>
      <trkpt lat="46.7961719" lon="-71.2312255">
        <ele>85.8</ele>
      </trkpt>
      <trkpt lat="46.7961496" lon="-71.2311836">
        <ele>85.6</ele>
      </trkpt>
      <trkpt lat="46.7961496" lon="-71.2311836">
        <ele>85.6</ele>
      </trkpt>
      <trkpt lat="46.7959622" lon="-71.2305866">
        <ele>85.5</ele>
      </trkpt>
      <trkpt lat="46.7958732" lon="-71.2303033">
        <ele>85.3</ele>
      </trkpt>
      <trkpt lat="46.7957908" lon="-71.2296576">
        <ele>85.6</ele>
      </trkpt>
      <trkpt lat="46.7957722" lon="-71.2295121">
        <ele>85.5</ele>
      </trkpt>
      <trkpt lat="46.7957722" lon="-71.2295121">
        <ele>85.5</ele>
      </trkpt>
      <trkpt lat="46.7957722" lon="-71.2295121">
        <ele>85.5</ele>
      </trkpt>
      <trkpt lat="46.7956258" lon="-71.2295102">
        <ele>84.5</ele>
      </trkpt>
      <trkpt lat="46.7956258" lon="-71.2295102">
        <ele>84.5</ele>
      </trkpt>
      <trkpt lat="46.7954499" lon="-71.2294358">
        <ele>82.7</ele>
      </trkpt>
      <trkpt lat="46.7954499" lon="-71.2294358">
        <ele>82.7</ele>
      </trkpt>
      <trkpt lat="46.7952507" lon="-71.2296455">
        <ele>80.3</ele>
      </trkpt>
      <trkpt lat="46.7952507" lon="-71.2296455">
        <ele>80.3</ele>
      </trkpt>
      <trkpt lat="46.7949821" lon="-71.2295982">
        <ele>76.1</ele>
      </trkpt>
      <trkpt lat="46.7949821" lon="-71.2295982">
        <ele>76.1</ele>
      </trkpt>
      <trkpt lat="46.7946898" lon="-71.2290991">
        <ele>69.2</ele>
      </trkpt>
      <trkpt lat="46.7946256" lon="-71.2289894">
        <ele>67.5</ele>
      </trkpt>
      <trkpt lat="46.7946256" lon="-71.2289894">
        <ele>67.5</ele>
      </trkpt>
      <trkpt lat="46.7945746" lon="-71.2285903">
        <ele>63.9</ele>
      </trkpt>
      <trkpt lat="46.7946162" lon="-71.2281855">
        <ele>61.4</ele>
      </trkpt>
      <trkpt lat="46.7946162" lon="-71.2281855">
        <ele>61.4</ele>
      </trkpt>
      <trkpt lat="46.7945097" lon="-71.2280840">
        <ele>59.1</ele>
      </trkpt>
      <trkpt lat="46.7945097" lon="-71.2280840">
        <ele>59.1</ele>
      </trkpt>
      <trkpt lat="46.7945097" lon="-71.2280840">
        <ele>59.1</ele>
      </trkpt>
      <trkpt lat="46.7943707" lon="-71.2281110">
        <ele>56.1</ele>
      </trkpt>
      <trkpt lat="46.7941401" lon="-71.2286749">
        <ele>55.7</ele>
      </trkpt>
      <trkpt lat="46.7939836" lon="-71.2290574">
        <ele>54.6</ele>
      </trkpt>
      <trkpt lat="46.7939836" lon="-71.2290574">
        <ele>54.6</ele>
      </trkpt>
      <trkpt lat="46.7939836" lon="-71.2290574">
        <ele>54.6</ele>
      </trkpt>
      <trkpt lat="46.7937325" lon="-71.2296022">
        <ele>54.2</ele>
      </trkpt>
      <trkpt lat="46.7936622" lon="-71.2297548">
        <ele>52.3</ele>
      </trkpt>
      <trkpt lat="46.7935125" lon="-71.2299291">
        <ele>51.7</ele>
      </trkpt>
      <trkpt lat="46.7935125" lon="-71.2299291">
        <ele>51.7</ele>
      </trkpt>
      <trkpt lat="46.7931752" lon="-71.2303635">
        <ele>48.3</ele>
      </trkpt>
      <trkpt lat="46.7930818" lon="-71.2304838">
        <ele>48.5</ele>
      </trkpt>
      <trkpt lat="46.7930818" lon="-71.2304838">
        <ele>48.5</ele>
      </trkpt>
      <trkpt lat="46.7926630" lon="-71.2307230">
        <ele>46.9</ele>
      </trkpt>
      <trkpt lat="46.7922528" lon="-71.2309573">
        <ele>38.4</ele>
      </trkpt>
      <trkpt lat="46.7922528" lon="-71.2309573">
        <ele>38.4</ele>
      </trkpt>
      <trkpt lat="46.7920773" lon="-71.2314384">
        <ele>41.8</ele>
      </trkpt>
      <trkpt lat="46.7920773" lon="-71.2314384">
        <ele>41.8</ele>
      </trkpt>
      <trkpt lat="46.7917321" lon="-71.2318592">
        <ele>31.1</ele>
      </trkpt>
      <trkpt lat="46.7917250" lon="-71.2318678">
        <ele>30.7</ele>
      </trkpt>
      <trkpt lat="46.7917250" lon="-71.2318678">
        <ele>30.7</ele>
      </trkpt>
      <trkpt lat="46.7916433" lon="-71.2322331">
        <ele>28.4</ele>
      </trkpt>
      <trkpt lat="46.7916433" lon="-71.2322331">
        <ele>28.4</ele>
      </trkpt>
      <trkpt lat="46.7914798" lon="-71.2325491">
        <ele>27.7</ele>
      </trkpt>
      <trkpt lat="46.7914798" lon="-71.2325491">
        <ele>27.7</ele>
      </trkpt>
      <trkpt lat="46.7913836" lon="-71.2325351">
        <ele>22.9</ele>
      </trkpt>
      <trkpt lat="46.7913836" lon="-71.2325351">
        <ele>22.9</ele>
      </trkpt>
      <trkpt lat="46.7913836" lon="-71.2325351">
        <ele>22.9</ele>
      </trkpt>
      <trkpt lat="46.7915086" lon="-71.2322050">
        <ele>20.1</ele>
      </trkpt>
      <trkpt lat="46.7915527" lon="-71.2316279">
        <ele>17.5</ele>
      </trkpt>
      <trkpt lat="46.7915527" lon="-71.2316279">
        <ele>17.5</ele>
      </trkpt>
      <trkpt lat="46.7915527" lon="-71.2316279">
        <ele>17.5</ele>
      </trkpt>
      <trkpt lat="46.7915394" lon="-71.2314969">
        <ele>14.5</ele>
      </trkpt>
      <trkpt lat="46.7914630" lon="-71.2314921">
        <ele>12.2</ele>
      </trkpt>
      <trkpt lat="46.7914630" lon="-71.2314921">
        <ele>12.2</ele>
      </trkpt>
      <trkpt lat="46.7914663" lon="-71.2316910">
        <ele>14.0</ele>
      </trkpt>
      <trkpt lat="46.7914663" lon="-71.2316910">
        <ele>14.0</ele>
      </trkpt>
      <trkpt lat="46.7914132" lon="-71.2319434">
        <ele>13.5</ele>
      </trkpt>
      <trkpt lat="46.7914132" lon="-71.2319434">
        <ele>13.5</ele>
      </trkpt>
      <trkpt lat="46.7912723" lon="-71.2321461">
        <ele>13.2</ele>
      </trkpt>
      <trkpt lat="46.7912723" lon="-71.2321461">
        <ele>13.2</ele>
      </trkpt>
      <trkpt lat="46.7911208" lon="-71.2325355">
        <ele>11.5</ele>
      </trkpt>
      <trkpt lat="46.7908406" lon="-71.2329569">
        <ele>12.8</ele>
      </trkpt>
      <trkpt lat="46.7908406" lon="-71.2329569">
        <ele>12.8</ele>
      </trkpt>
      <trkpt lat="46.7907689" lon="-71.2331101">
        <ele>12.4</ele>
      </trkpt>
      <trkpt lat="46.7906319" lon="-71.2334027">
        <ele>11.5</ele>
      </trkpt>
      <trkpt lat="46.7904857" lon="-71.2338200">
        <ele>10.1</ele>
      </trkpt>
      <trkpt lat="46.7904857" lon="-71.2338200">
        <ele>10.1</ele>
      </trkpt>
      <trkpt lat="46.7902199" lon="-71.2341112">
        <ele>8.9</ele>
      </trkpt>
      <trkpt lat="46.7902199" lon="-71.2341112">
        <ele>8.9</ele>
      </trkpt>
      <trkpt lat="46.7900405" lon="-71.2344267">
        <ele>8.4</ele>
      </trkpt>
      <trkpt lat="46.7900405" lon="-71.2344267">
        <ele>8.4</ele>
      </trkpt>
      <trkpt lat="46.7900272" lon="-71.2347373">
        <ele>8.7</ele>
      </trkpt>
      <trkpt lat="46.7900272" lon="-71.2347373">
        <ele>8.7</ele>
      </trkpt>
      <trkpt lat="46.7899541" lon="-71.2348489">
        <ele>8.7</ele>
      </trkpt>
      <trkpt lat="46.7899541" lon="-71.2348489">
        <ele>8.7</ele>
      </trkpt>
      <trkpt lat="46.7899541" lon="-71.2348489">
        <ele>8.7</ele>
      </trkpt>
      <trkpt lat="46.7897714" lon="-71.2347955">
        <ele>8.1</ele>
      </trkpt>
      <trkpt lat="46.7896670" lon="-71.2345981">
        <ele>7.4</ele>
      </trkpt>
      <trkpt lat="46.7896670" lon="-71.2345981">
        <ele>7.4</ele>
      </trkpt>
      <trkpt lat="46.7896670" lon="-71.2345981">
        <ele>7.4</ele>
      </trkpt>
      <trkpt lat="46.7895429" lon="-71.2344462">
        <ele>6.5</ele>
      </trkpt>
      <trkpt lat="46.7895429" lon="-71.2344462">
        <ele>6.5</ele>
      </trkpt>
      <trkpt lat="46.7896211" lon="-71.2344001">
        <ele>6.6</ele>
      </trkpt>
      <trkpt lat="46.7900597" lon="-71.2339670">
        <ele>7.6</ele>
      </trkpt>
      <trkpt lat="46.7905168" lon="-71.2333986">
        <ele>10.8</ele>
      </trkpt>
      <trkpt lat="46.7909430" lon="-71.2324963">
        <ele>9.6</ele>
      </trkpt>
      <trkpt lat="46.7913507" lon="-71.2315671">
        <ele>11.8</ele>
      </trkpt>
      <trkpt lat="46.7916719" lon="-71.2308724">
        <ele>9.0</ele>
      </trkpt>
      <trkpt lat="46.7924193" lon="-71.2299431">
        <ele>6.9</ele>
      </trkpt>
      <trkpt lat="46.7930122" lon="-71.2293027">
        <ele>6.4</ele>
      </trkpt>
      <trkpt lat="46.7934075" lon="-71.2284997">
        <ele>6.6</ele>
      </trkpt>
      <trkpt lat="46.7937534" lon="-71.2275614">
        <ele>7.4</ele>
      </trkpt>
      <trkpt lat="46.7941179" lon="-71.2264787">
        <ele>7.2</ele>
      </trkpt>
      <trkpt lat="46.7944946" lon="-71.2257390">
        <ele>7.1</ele>
      </trkpt>
      <trkpt lat="46.7949023" lon="-71.2249631">
        <ele>6.7</ele>
      </trkpt>
      <trkpt lat="46.7953717" lon="-71.2241331">
        <ele>6.5</ele>
      </trkpt>
      <trkpt lat="46.7958534" lon="-71.2232038">
        <ele>6.6</ele>
      </trkpt>
      <trkpt lat="46.7963970" lon="-71.2225453">
        <ele>6.5</ele>
      </trkpt>
      <trkpt lat="46.7969652" lon="-71.2216882">
        <ele>6.9</ele>
      </trkpt>
      <trkpt lat="46.7974593" lon="-71.2207228">
        <ele>7.2</ele>
      </trkpt>
      <trkpt lat="46.7977866" lon="-71.2199831">
        <ele>6.8</ele>
      </trkpt>
      <trkpt lat="46.7980645" lon="-71.2193245">
        <ele>6.1</ele>
      </trkpt>
      <trkpt lat="46.7981695" lon="-71.2187381">
        <ele>5.6</ele>
      </trkpt>
      <trkpt lat="46.7983424" lon="-71.2186661">
        <ele>5.5</ele>
      </trkpt>
      <trkpt lat="46.7984845" lon="-71.2183683">
        <ele>5.3</ele>
      </trkpt>
      <trkpt lat="46.7986698" lon="-71.2179172">
        <ele>5.0</ele>
      </trkpt>
      <trkpt lat="46.7989600" lon="-71.2173578">
        <ele>4.7</ele>
      </trkpt>
      <trkpt lat="46.7993183" lon="-71.2167804">
        <ele>4.9</ele>
      </trkpt>
      <trkpt lat="46.7996703" lon="-71.2163022">
        <ele>4.8</ele>
      </trkpt>
      <trkpt lat="46.8000347" lon="-71.2157158">
        <ele>5.2</ele>
      </trkpt>
      <trkpt lat="46.8003373" lon="-71.2151203">
        <ele>5.4</ele>
      </trkpt>
      <trkpt lat="46.8006955" lon="-71.2145249">
        <ele>5.6</ele>
      </trkpt>
      <trkpt lat="46.8012266" lon="-71.2137760">
        <ele>5.7</ele>
      </trkpt>
      <trkpt lat="46.8018133" lon="-71.2128197">
        <ele>6.6</ele>
      </trkpt>
      <trkpt lat="46.8020541" lon="-71.2122875">
        <ele>6.2</ele>
      </trkpt>
      <trkpt lat="46.8021715" lon="-71.2117372">
        <ele>6.7</ele>
      </trkpt>
      <trkpt lat="46.8021159" lon="-71.2111056">
        <ele>8.5</ele>
      </trkpt>
      <trkpt lat="46.8021221" lon="-71.2105824">
        <ele>7.6</ele>
      </trkpt>
      <trkpt lat="46.8022394" lon="-71.2100591">
        <ele>7.3</ele>
      </trkpt>
      <trkpt lat="46.8025111" lon="-71.2094366">
        <ele>7.1</ele>
      </trkpt>
      <trkpt lat="46.8028940" lon="-71.2086968">
        <ele>6.6</ele>
      </trkpt>
      <trkpt lat="46.8034683" lon="-71.2078938">
        <ele>7.8</ele>
      </trkpt>
      <trkpt lat="46.8040427" lon="-71.2070728">
        <ele>7.1</ele>
      </trkpt>
      <trkpt lat="46.8046602" lon="-71.2062879">
        <ele>6.7</ele>
      </trkpt>
      <trkpt lat="46.8052530" lon="-71.2056294">
        <ele>6.6</ele>
      </trkpt>
      <trkpt lat="46.8055371" lon="-71.2053949">
        <ele>6.5</ele>
      </trkpt>
      <trkpt lat="46.8056668" lon="-71.2051874">
        <ele>6.3</ele>
      </trkpt>
      <trkpt lat="46.8062472" lon="-71.2047633">
        <ele>6.4</ele>
      </trkpt>
      <trkpt lat="46.8068339" lon="-71.2043573">
        <ele>7.2</ele>
      </trkpt>
      <trkpt lat="46.8075131" lon="-71.2039965">
        <ele>7.6</ele>
      </trkpt>
      <trkpt lat="46.8082232" lon="-71.2036537">
        <ele>9.8</ele>
      </trkpt>
      <trkpt lat="46.8089457" lon="-71.2033650">
        <ele>9.4</ele>
      </trkpt>
      <trkpt lat="46.8095879" lon="-71.2033200">
        <ele>10.3</ele>
      </trkpt>
      <trkpt lat="46.8102918" lon="-71.2033200">
        <ele>7.8</ele>
      </trkpt>
      <trkpt lat="46.8109648" lon="-71.2033109">
        <ele>6.5</ele>
      </trkpt>
      <trkpt lat="46.8115267" lon="-71.2031846">
        <ele>5.1</ele>
      </trkpt>
      <trkpt lat="46.8120885" lon="-71.2032288">
        <ele>5.1</ele>
      </trkpt>
      <trkpt lat="46.8120885" lon="-71.2032288">
        <ele>5.1</ele>
      </trkpt>
      <trkpt lat="46.8122178" lon="-71.2030246">
        <ele>5.1</ele>
      </trkpt>
      <trkpt lat="46.8123258" lon="-71.2023868">
        <ele>4.6</ele>
      </trkpt>
      <trkpt lat="46.8124337" lon="-71.2017490">
        <ele>4.1</ele>
      </trkpt>
      <trkpt lat="46.8124467" lon="-71.2016726">
        <ele>3.8</ele>
      </trkpt>
      <trkpt lat="46.8124467" lon="-71.2016726">
        <ele>3.8</ele>
      </trkpt>
      <trkpt lat="46.8124467" lon="-71.2016726">
        <ele>3.8</ele>
      </trkpt>
      <trkpt lat="46.8128883" lon="-71.2015493">
        <ele>3.8</ele>
      </trkpt>
      <trkpt lat="46.8131232" lon="-71.2014836">
        <ele>3.7</ele>
      </trkpt>
      <trkpt lat="46.8131232" lon="-71.2014836">
        <ele>3.7</ele>
      </trkpt>
      <trkpt lat="46.8135711" lon="-71.2014252">
        <ele>4.0</ele>
      </trkpt>
      <trkpt lat="46.8136803" lon="-71.2014110">
        <ele>4.1</ele>
      </trkpt>
      <trkpt lat="46.8141069" lon="-71.2016187">
        <ele>4.3</ele>
      </trkpt>
      <trkpt lat="46.8141280" lon="-71.2016290">
        <ele>4.4</ele>
      </trkpt>
      <trkpt lat="46.8141280" lon="-71.2016290">
        <ele>4.4</ele>
      </trkpt>
      <trkpt lat="46.8140524" lon="-71.2022767">
        <ele>5.9</ele>
      </trkpt>
      <trkpt lat="46.8140038" lon="-71.2026927">
        <ele>6.9</ele>
      </trkpt>
      <trkpt lat="46.8140038" lon="-71.2026927">
        <ele>6.9</ele>
      </trkpt>
      <trkpt lat="46.8145460" lon="-71.2028689">
        <ele>6.1</ele>
      </trkpt>
      <trkpt lat="46.8152313" lon="-71.2030674">
        <ele>5.3</ele>
      </trkpt>
      <trkpt lat="46.8159599" lon="-71.2032749">
        <ele>4.8</ele>
      </trkpt>
      <trkpt lat="46.8162685" lon="-71.2033987">
        <ele>4.5</ele>
      </trkpt>
      <trkpt lat="46.8162685" lon="-71.2033987">
        <ele>4.5</ele>
      </trkpt>
      <trkpt lat="46.8163294" lon="-71.2040497">
        <ele>5.1</ele>
      </trkpt>
      <trkpt lat="46.8163903" lon="-71.2047007">
        <ele>5.1</ele>
      </trkpt>
      <trkpt lat="46.8164267" lon="-71.2050904">
        <ele>5.3</ele>
      </trkpt>
      <trkpt lat="46.8168716" lon="-71.2049954">
        <ele>4.5</ele>
      </trkpt>
      <trkpt lat="46.8169112" lon="-71.2049869">
        <ele>4.5</ele>
      </trkpt>
      <trkpt lat="46.8169112" lon="-71.2049869">
        <ele>4.5</ele>
      </trkpt>
      <trkpt lat="46.8169292" lon="-71.2051429">
        <ele>4.5</ele>
      </trkpt>
      <trkpt lat="46.8172070" lon="-71.2075429">
        <ele>4.6</ele>
      </trkpt>
      <trkpt lat="46.8174108" lon="-71.2091576">
        <ele>4.8</ele>
      </trkpt>
      <trkpt lat="46.8175281" lon="-71.2096895">
        <ele>4.8</ele>
      </trkpt>
      <trkpt lat="46.8177256" lon="-71.2101406">
        <ele>5.0</ele>
      </trkpt>
      <trkpt lat="46.8178676" lon="-71.2108083">
        <ele>4.8</ele>
      </trkpt>
      <trkpt lat="46.8180281" lon="-71.2115662">
        <ele>5.2</ele>
      </trkpt>
      <trkpt lat="46.8182134" lon="-71.2123059">
        <ele>5.8</ele>
      </trkpt>
      <trkpt lat="46.8182134" lon="-71.2123059">
        <ele>5.8</ele>
      </trkpt>
      <trkpt lat="46.8184625" lon="-71.2128530">
        <ele>6.0</ele>
      </trkpt>
      <trkpt lat="46.8187116" lon="-71.2134000">
        <ele>6.1</ele>
      </trkpt>
      <trkpt lat="46.8189608" lon="-71.2139470">
        <ele>6.6</ele>
      </trkpt>
      <trkpt lat="46.8192099" lon="-71.2144940">
        <ele>7.1</ele>
      </trkpt>
      <trkpt lat="46.8194591" lon="-71.2150410">
        <ele>7.3</ele>
      </trkpt>
      <trkpt lat="46.8194826" lon="-71.2150926">
        <ele>7.4</ele>
      </trkpt>
      <trkpt lat="46.8196014" lon="-71.2151451">
        <ele>7.3</ele>
      </trkpt>
      <trkpt lat="46.8196014" lon="-71.2151451">
        <ele>7.3</ele>
      </trkpt>
      <trkpt lat="46.8196364" lon="-71.2152166">
        <ele>7.2</ele>
      </trkpt>
      <trkpt lat="46.8198269" lon="-71.2152726">
        <ele>7.0</ele>
      </trkpt>
      <trkpt lat="46.8200618" lon="-71.2153906">
        <ele>6.8</ele>
      </trkpt>
      <trkpt lat="46.8202527" lon="-71.2154603">
        <ele>6.7</ele>
      </trkpt>
      <trkpt lat="46.8204330" lon="-71.2155059">
        <ele>6.9</ele>
      </trkpt>
      <trkpt lat="46.8205541" lon="-71.2155488">
        <ele>7.0</ele>
      </trkpt>
      <trkpt lat="46.8207229" lon="-71.2156722">
        <ele>5.7</ele>
      </trkpt>
      <trkpt lat="46.8208371" lon="-71.2158333">
        <ele>3.4</ele>
      </trkpt>
      <trkpt lat="46.8210964" lon="-71.2160950">
        <ele>2.7</ele>
      </trkpt>
      <trkpt lat="46.8215841" lon="-71.2165551">
        <ele>2.5</ele>
      </trkpt>
      <trkpt lat="46.8221089" lon="-71.2170423">
        <ele>7.1</ele>
      </trkpt>
      <trkpt lat="46.8218805" lon="-71.2176017">
        <ele>5.8</ele>
      </trkpt>
      <trkpt lat="46.8217323" lon="-71.2178362">
        <ele>5.3</ele>
      </trkpt>
      <trkpt lat="46.8214607" lon="-71.2186122">
        <ele>5.5</ele>
      </trkpt>
      <trkpt lat="46.8213063" lon="-71.2190903">
        <ele>5.9</ele>
      </trkpt>
      <trkpt lat="46.8210656" lon="-71.2196677">
        <ele>5.5</ele>
      </trkpt>
      <trkpt lat="46.8207384" lon="-71.2203624">
        <ele>4.1</ele>
      </trkpt>
      <trkpt lat="46.8203927" lon="-71.2212557">
        <ele>3.4</ele>
      </trkpt>
      <trkpt lat="46.8200716" lon="-71.2222300">
        <ele>3.8</ele>
      </trkpt>
      <trkpt lat="46.8197321" lon="-71.2232946">
        <ele>3.2</ele>
      </trkpt>
      <trkpt lat="46.8196518" lon="-71.2236463">
        <ele>2.9</ele>
      </trkpt>
      <trkpt lat="46.8195777" lon="-71.2241606">
        <ele>3.1</ele>
      </trkpt>
      <trkpt lat="46.8196827" lon="-71.2250358">
        <ele>5.6</ele>
      </trkpt>
      <trkpt lat="46.8198617" lon="-71.2261997">
        <ele>5.9</ele>
      </trkpt>
      <trkpt lat="46.8199543" lon="-71.2266596">
        <ele>5.8</ele>
      </trkpt>
      <trkpt lat="46.8200408" lon="-71.2272190">
        <ele>5.9</ele>
      </trkpt>
      <trkpt lat="46.8202321" lon="-71.2276791">
        <ele>6.1</ele>
      </trkpt>
      <trkpt lat="46.8205038" lon="-71.2280580">
        <ele>6.4</ele>
      </trkpt>
      <trkpt lat="46.8206705" lon="-71.2283557">
        <ele>6.4</ele>
      </trkpt>
      <trkpt lat="46.8207137" lon="-71.2288970">
        <ele>4.0</ele>
      </trkpt>
      <trkpt lat="46.8210717" lon="-71.2294293">
        <ele>4.9</ele>
      </trkpt>
      <trkpt lat="46.8213125" lon="-71.2295555">
        <ele>5.3</ele>
      </trkpt>
      <trkpt lat="46.8215471" lon="-71.2297630">
        <ele>5.1</ele>
      </trkpt>
      <trkpt lat="46.8217014" lon="-71.2302503">
        <ele>5.4</ele>
      </trkpt>
      <trkpt lat="46.8219298" lon="-71.2306472">
        <ele>5.3</ele>
      </trkpt>
      <trkpt lat="46.8221891" lon="-71.2310622">
        <ele>4.9</ele>
      </trkpt>
      <trkpt lat="46.8225040" lon="-71.2314953">
        <ele>5.2</ele>
      </trkpt>
      <trkpt lat="46.8228188" lon="-71.2319554">
        <ele>4.9</ele>
      </trkpt>
      <trkpt lat="46.8230349" lon="-71.2324877">
        <ele>4.6</ele>
      </trkpt>
      <trkpt lat="46.8232447" lon="-71.2329839">
        <ele>4.9</ele>
      </trkpt>
      <trkpt lat="46.8234299" lon="-71.2332816">
        <ele>6.0</ele>
      </trkpt>
      <trkpt lat="46.8235349" lon="-71.2336335">
        <ele>5.4</ele>
      </trkpt>
      <trkpt lat="46.8236769" lon="-71.2340214">
        <ele>5.0</ele>
      </trkpt>
      <trkpt lat="46.8238065" lon="-71.2342469">
        <ele>5.4</ele>
      </trkpt>
      <trkpt lat="46.8239732" lon="-71.2345807">
        <ele>5.4</ele>
      </trkpt>
      <trkpt lat="46.8241831" lon="-71.2350409">
        <ele>6.1</ele>
      </trkpt>
      <trkpt lat="46.8242880" lon="-71.2355642">
        <ele>5.6</ele>
      </trkpt>
      <trkpt lat="46.8243004" lon="-71.2361506">
        <ele>4.8</ele>
      </trkpt>
      <trkpt lat="46.8242695" lon="-71.2365656">
        <ele>4.3</ele>
      </trkpt>
      <trkpt lat="46.8242571" lon="-71.2369986">
        <ele>4.6</ele>
      </trkpt>
      <trkpt lat="46.8241954" lon="-71.2374497">
        <ele>4.4</ele>
      </trkpt>
      <trkpt lat="46.8242201" lon="-71.2377564">
        <ele>5.2</ele>
      </trkpt>
      <trkpt lat="46.8243497" lon="-71.2380090">
        <ele>6.3</ele>
      </trkpt>
      <trkpt lat="46.8245967" lon="-71.2381714">
        <ele>7.2</ele>
      </trkpt>
      <trkpt lat="46.8249053" lon="-71.2381443">
        <ele>8.5</ele>
      </trkpt>
      <trkpt lat="46.8252016" lon="-71.2381894">
        <ele>7.9</ele>
      </trkpt>
      <trkpt lat="46.8253745" lon="-71.2384150">
        <ele>7.5</ele>
      </trkpt>
      <trkpt lat="46.8255350" lon="-71.2383066">
        <ele>8.6</ele>
      </trkpt>
      <trkpt lat="46.8257016" lon="-71.2380901">
        <ele>8.8</ele>
      </trkpt>
      <trkpt lat="46.8252695" lon="-71.2377021">
        <ele>8.1</ele>
      </trkpt>
      <trkpt lat="46.8247510" lon="-71.2372690">
        <ele>9.6</ele>
      </trkpt>
      <trkpt lat="46.8247695" lon="-71.2365833">
        <ele>9.0</ele>
      </trkpt>
      <trkpt lat="46.8249856" lon="-71.2350312">
        <ele>8.8</ele>
      </trkpt>
      <trkpt lat="46.8252078" lon="-71.2334434">
        <ele>8.1</ele>
      </trkpt>
      <trkpt lat="46.8251646" lon="-71.2331370">
        <ele>7.9</ele>
      </trkpt>
      <trkpt lat="46.8251198" lon="-71.2330949">
        <ele>7.9</ele>
      </trkpt>
      <trkpt lat="46.8251198" lon="-71.2330949">
        <ele>7.9</ele>
      </trkpt>
      <trkpt lat="46.8253489" lon="-71.2325294">
        <ele>7.6</ele>
      </trkpt>
      <trkpt lat="46.8255780" lon="-71.2319639">
        <ele>8.0</ele>
      </trkpt>
      <trkpt lat="46.8257937" lon="-71.2314318">
        <ele>7.8</ele>
      </trkpt>
      <trkpt lat="46.8257937" lon="-71.2314318">
        <ele>7.8</ele>
      </trkpt>
      <trkpt lat="46.8254101" lon="-71.2310888">
        <ele>7.5</ele>
      </trkpt>
      <trkpt lat="46.8250265" lon="-71.2307458">
        <ele>7.1</ele>
      </trkpt>
      <trkpt lat="46.8246430" lon="-71.2304028">
        <ele>6.7</ele>
      </trkpt>
      <trkpt lat="46.8242594" lon="-71.2300599">
        <ele>6.4</ele>
      </trkpt>
      <trkpt lat="46.8238758" lon="-71.2297169">
        <ele>6.1</ele>
      </trkpt>
      <trkpt lat="46.8234923" lon="-71.2293739">
        <ele>6.0</ele>
      </trkpt>
      <trkpt lat="46.8231087" lon="-71.2290309">
        <ele>5.8</ele>
      </trkpt>
      <trkpt lat="46.8227252" lon="-71.2286880">
        <ele>5.5</ele>
      </trkpt>
      <trkpt lat="46.8225668" lon="-71.2285463">
        <ele>5.4</ele>
      </trkpt>
      <trkpt lat="46.8225668" lon="-71.2285463">
        <ele>5.4</ele>
      </trkpt>
      <trkpt lat="46.8228064" lon="-71.2279902">
        <ele>5.6</ele>
      </trkpt>
      <trkpt lat="46.8230459" lon="-71.2274341">
        <ele>5.6</ele>
      </trkpt>
      <trkpt lat="46.8232855" lon="-71.2268780">
        <ele>5.6</ele>
      </trkpt>
      <trkpt lat="46.8232886" lon="-71.2268709">
        <ele>5.6</ele>
      </trkpt>
      <trkpt lat="46.8236674" lon="-71.2272251">
        <ele>5.8</ele>
      </trkpt>
      <trkpt lat="46.8240461" lon="-71.2275793">
        <ele>5.9</ele>
      </trkpt>
      <trkpt lat="46.8244249" lon="-71.2279335">
        <ele>5.9</ele>
      </trkpt>
      <trkpt lat="46.8248037" lon="-71.2282877">
        <ele>6.1</ele>
      </trkpt>
      <trkpt lat="46.8251824" lon="-71.2286419">
        <ele>6.4</ele>
      </trkpt>
      <trkpt lat="46.8255612" lon="-71.2289961">
        <ele>6.6</ele>
      </trkpt>
      <trkpt lat="46.8259400" lon="-71.2293503">
        <ele>7.2</ele>
      </trkpt>
      <trkpt lat="46.8263187" lon="-71.2297045">
        <ele>7.6</ele>
      </trkpt>
      <trkpt lat="46.8266975" lon="-71.2300587">
        <ele>8.0</ele>
      </trkpt>
      <trkpt lat="46.8270763" lon="-71.2304129">
        <ele>8.5</ele>
      </trkpt>
      <trkpt lat="46.8274550" lon="-71.2307671">
        <ele>9.1</ele>
      </trkpt>
      <trkpt lat="46.8278338" lon="-71.2311213">
        <ele>9.7</ele>
      </trkpt>
      <trkpt lat="46.8282126" lon="-71.2314755">
        <ele>10.3</ele>
      </trkpt>
      <trkpt lat="46.8285913" lon="-71.2318297">
        <ele>10.9</ele>
      </trkpt>
      <trkpt lat="46.8289701" lon="-71.2321839">
        <ele>11.4</ele>
      </trkpt>
      <trkpt lat="46.8293489" lon="-71.2325381">
        <ele>11.6</ele>
      </trkpt>
      <trkpt lat="46.8297276" lon="-71.2328923">
        <ele>11.6</ele>
      </trkpt>
      <trkpt lat="46.8301064" lon="-71.2332465">
        <ele>11.9</ele>
      </trkpt>
      <trkpt lat="46.8304851" lon="-71.2336007">
        <ele>12.1</ele>
      </trkpt>
      <trkpt lat="46.8308639" lon="-71.2339549">
        <ele>12.2</ele>
      </trkpt>
      <trkpt lat="46.8312427" lon="-71.2343091">
        <ele>12.1</ele>
      </trkpt>
      <trkpt lat="46.8315718" lon="-71.2346169">
        <ele>11.8</ele>
      </trkpt>
      <trkpt lat="46.8315718" lon="-71.2346169">
        <ele>11.8</ele>
      </trkpt>
      <trkpt lat="46.8312508" lon="-71.2352304">
        <ele>11.6</ele>
      </trkpt>
      <trkpt lat="46.8309360" lon="-71.2358439">
        <ele>12.0</ele>
      </trkpt>
      <trkpt lat="46.8305780" lon="-71.2365296">
        <ele>12.3</ele>
      </trkpt>
      <trkpt lat="46.8301768" lon="-71.2374679">
        <ele>12.4</ele>
      </trkpt>
      <trkpt lat="46.8301336" lon="-71.2377925">
        <ele>12.3</ele>
      </trkpt>
      <trkpt lat="46.8305101" lon="-71.2382617">
        <ele>12.3</ele>
      </trkpt>
      <trkpt lat="46.8310163" lon="-71.2386947">
        <ele>12.5</ele>
      </trkpt>
      <trkpt lat="46.8316026" lon="-71.2392902">
        <ele>12.5</ele>
      </trkpt>
      <trkpt lat="46.8310841" lon="-71.2407972">
        <ele>12.7</ele>
      </trkpt>
      <trkpt lat="46.8305348" lon="-71.2421594">
        <ele>12.7</ele>
      </trkpt>
      <trkpt lat="46.8300225" lon="-71.2434856">
        <ele>12.6</ele>
      </trkpt>
      <trkpt lat="46.8298497" lon="-71.2437559">
        <ele>12.6</ele>
      </trkpt>
      <trkpt lat="46.8296522" lon="-71.2439454">
        <ele>12.8</ele>
      </trkpt>
      <trkpt lat="46.8292756" lon="-71.2442160">
        <ele>12.9</ele>
      </trkpt>
      <trkpt lat="46.8292649" lon="-71.2442356">
        <ele>12.9</ele>
      </trkpt>
      <trkpt lat="46.8292649" lon="-71.2442356">
        <ele>12.9</ele>
      </trkpt>
      <trkpt lat="46.8288943" lon="-71.2443344">
        <ele>12.9</ele>
      </trkpt>
    </trkseg>
  </trk>
</gpx>
