<?xml version="1.0" encoding="UTF-8"?>
<gpx version="1.1" creator="marathon-quebec-2026 pacer" xmlns="http://www.topografix.com/GPX/1/1">
  <metadata><name>Marathon Beneva de Québec 2026 – 42,195 km</name>
    <desc>Start line on Rue de l'Exposition to the finish line on Avenue du Colisée. Street centrelines (Overture Maps / OpenStreetMap) following the checked 2026 course; elevation in metres.</desc></metadata>
  <trk><name>Marathon Beneva de Québec 2026</name><trkseg>
    <trkpt lat="46.8263832" lon="-71.2488828"><ele>11.7</ele></trkpt>
    <trkpt lat="46.8263458" lon="-71.2484665"><ele>11.7</ele></trkpt>
    <trkpt lat="46.8263179" lon="-71.2482605"><ele>11.7</ele></trkpt>
    <trkpt lat="46.8262766" lon="-71.2480595"><ele>11.7</ele></trkpt>
    <trkpt lat="46.8261153" lon="-71.2476803"><ele>11.5</ele></trkpt>
    <trkpt lat="46.8260400" lon="-71.2476105"><ele>11.4</ele></trkpt>
    <trkpt lat="46.8257498" lon="-71.2474668"><ele>11.0</ele></trkpt>
    <trkpt lat="46.8255419" lon="-71.2473799"><ele>10.8</ele></trkpt>
    <trkpt lat="46.8254193" lon="-71.2472696"><ele>10.6</ele></trkpt>
    <trkpt lat="46.8253339" lon="-71.2471729"><ele>10.4</ele></trkpt>
    <trkpt lat="46.8252192" lon="-71.2470062"><ele>10.1</ele></trkpt>
    <trkpt lat="46.8251153" lon="-71.2467918"><ele>9.8</ele></trkpt>
    <trkpt lat="46.8250489" lon="-71.2465763"><ele>9.6</ele></trkpt>
    <trkpt lat="46.8249829" lon="-71.2464199"><ele>9.5</ele></trkpt>
    <trkpt lat="46.8249063" lon="-71.2460154"><ele>9.5</ele></trkpt>
    <trkpt lat="46.8248109" lon="-71.2456191"><ele>9.4</ele></trkpt>
    <trkpt lat="46.8247029" lon="-71.2452872"><ele>9.2</ele></trkpt>
    <trkpt lat="46.8246565" lon="-71.2451748"><ele>9.2</ele></trkpt>
    <trkpt lat="46.8246004" lon="-71.2450721"><ele>9.2</ele></trkpt>
    <trkpt lat="46.8244543" lon="-71.2448404"><ele>9.1</ele></trkpt>
    <trkpt lat="46.8242467" lon="-71.2446315"><ele>9.0</ele></trkpt>
    <trkpt lat="46.8239698" lon="-71.2443851"><ele>8.9</ele></trkpt>
    <trkpt lat="46.8234562" lon="-71.2439482"><ele>8.7</ele></trkpt>
    <trkpt lat="46.8232295" lon="-71.2437869"><ele>8.6</ele></trkpt>
    <trkpt lat="46.8229554" lon="-71.2435343"><ele>8.5</ele></trkpt>
    <trkpt lat="46.8228893" lon="-71.2434451"><ele>8.5</ele></trkpt>
    <trkpt lat="46.8227963" lon="-71.2432850"><ele>8.5</ele></trkpt>
    <trkpt lat="46.8226860" lon="-71.2430140"><ele>8.4</ele></trkpt>
    <trkpt lat="46.8222884" lon="-71.2417493"><ele>8.6</ele></trkpt>
    <trkpt lat="46.8222780" lon="-71.2417365"><ele>8.6</ele></trkpt>
    <trkpt lat="46.8209932" lon="-71.2425675"><ele>8.9</ele></trkpt>
    <trkpt lat="46.8209810" lon="-71.2425598"><ele>8.9</ele></trkpt>
    <trkpt lat="46.8209119" lon="-71.2423755"><ele>9.0</ele></trkpt>
    <trkpt lat="46.8206014" lon="-71.2415459"><ele>9.2</ele></trkpt>
    <trkpt lat="46.8205309" lon="-71.2413332"><ele>9.3</ele></trkpt>
    <trkpt lat="46.8204869" lon="-71.2411060"><ele>9.3</ele></trkpt>
    <trkpt lat="46.8204761" lon="-71.2409493"><ele>9.2</ele></trkpt>
    <trkpt lat="46.8204867" lon="-71.2407401"><ele>9.1</ele></trkpt>
    <trkpt lat="46.8205136" lon="-71.2405338"><ele>8.9</ele></trkpt>
    <trkpt lat="46.8205141" lon="-71.2404028"><ele>8.8</ele></trkpt>
    <trkpt lat="46.8204964" lon="-71.2403284"><ele>8.7</ele></trkpt>
    <trkpt lat="46.8204688" lon="-71.2402610"><ele>8.6</ele></trkpt>
    <trkpt lat="46.8204266" lon="-71.2402119"><ele>8.6</ele></trkpt>
    <trkpt lat="46.8203430" lon="-71.2401630"><ele>8.5</ele></trkpt>
    <trkpt lat="46.8201851" lon="-71.2401089"><ele>8.4</ele></trkpt>
    <trkpt lat="46.8197609" lon="-71.2399851"><ele>8.5</ele></trkpt>
    <trkpt lat="46.8195652" lon="-71.2399387"><ele>8.6</ele></trkpt>
    <trkpt lat="46.8193499" lon="-71.2399095"><ele>8.8</ele></trkpt>
    <trkpt lat="46.8191336" lon="-71.2399147"><ele>9.0</ele></trkpt>
    <trkpt lat="46.8190083" lon="-71.2399363"><ele>9.1</ele></trkpt>
    <trkpt lat="46.8183592" lon="-71.2401591"><ele>9.6</ele></trkpt>
    <trkpt lat="46.8179275" lon="-71.2403475"><ele>9.7</ele></trkpt>
    <trkpt lat="46.8177089" lon="-71.2404700"><ele>9.8</ele></trkpt>
    <trkpt lat="46.8173925" lon="-71.2407213"><ele>9.8</ele></trkpt>
    <trkpt lat="46.8170851" lon="-71.2410429"><ele>10.0</ele></trkpt>
    <trkpt lat="46.8167206" lon="-71.2415123"><ele>10.0</ele></trkpt>
    <trkpt lat="46.8164462" lon="-71.2419648"><ele>10.0</ele></trkpt>
    <trkpt lat="46.8162355" lon="-71.2424227"><ele>10.0</ele></trkpt>
    <trkpt lat="46.8160501" lon="-71.2429330"><ele>10.1</ele></trkpt>
    <trkpt lat="46.8159127" lon="-71.2434745"><ele>10.3</ele></trkpt>
    <trkpt lat="46.8157865" lon="-71.2443745"><ele>10.5</ele></trkpt>
    <trkpt lat="46.8156968" lon="-71.2452837"><ele>10.6</ele></trkpt>
    <trkpt lat="46.8156728" lon="-71.2456759"><ele>10.6</ele></trkpt>
    <trkpt lat="46.8156727" lon="-71.2458596"><ele>10.6</ele></trkpt>
    <trkpt lat="46.8156865" lon="-71.2460685"><ele>10.5</ele></trkpt>
    <trkpt lat="46.8157162" lon="-71.2462470"><ele>10.5</ele></trkpt>
    <trkpt lat="46.8158192" lon="-71.2466109"><ele>10.4</ele></trkpt>
    <trkpt lat="46.8158190" lon="-71.2466348"><ele>10.4</ele></trkpt>
    <trkpt lat="46.8157636" lon="-71.2467999"><ele>10.4</ele></trkpt>
    <trkpt lat="46.8159521" lon="-71.2474525"><ele>10.3</ele></trkpt>
    <trkpt lat="46.8160559" lon="-71.2478443"><ele>10.2</ele></trkpt>
    <trkpt lat="46.8160689" lon="-71.2479474"><ele>10.2</ele></trkpt>
    <trkpt lat="46.8160650" lon="-71.2479729"><ele>10.2</ele></trkpt>
    <trkpt lat="46.8160358" lon="-71.2480963"><ele>10.0</ele></trkpt>
    <trkpt lat="46.8159995" lon="-71.2481529"><ele>10.0</ele></trkpt>
    <trkpt lat="46.8159372" lon="-71.2482049"><ele>9.9</ele></trkpt>
    <trkpt lat="46.8158025" lon="-71.2482799"><ele>9.7</ele></trkpt>
    <trkpt lat="46.8157399" lon="-71.2483318"><ele>9.6</ele></trkpt>
    <trkpt lat="46.8156990" lon="-71.2483825"><ele>9.6</ele></trkpt>
    <trkpt lat="46.8156596" lon="-71.2484700"><ele>9.6</ele></trkpt>
    <trkpt lat="46.8156131" lon="-71.2486408"><ele>9.5</ele></trkpt>
    <trkpt lat="46.8155297" lon="-71.2488734"><ele>9.4</ele></trkpt>
    <trkpt lat="46.8154183" lon="-71.2491123"><ele>9.1</ele></trkpt>
    <trkpt lat="46.8153205" lon="-71.2493006"><ele>9.0</ele></trkpt>
    <trkpt lat="46.8149784" lon="-71.2498408"><ele>9.0</ele></trkpt>
    <trkpt lat="46.8148540" lon="-71.2499920"><ele>9.0</ele></trkpt>
    <trkpt lat="46.8147731" lon="-71.2500499"><ele>8.9</ele></trkpt>
    <trkpt lat="46.8146179" lon="-71.2501182"><ele>9.0</ele></trkpt>
    <trkpt lat="46.8145359" lon="-71.2501715"><ele>9.0</ele></trkpt>
    <trkpt lat="46.8143054" lon="-71.2504236"><ele>9.0</ele></trkpt>
    <trkpt lat="46.8142371" lon="-71.2504569"><ele>8.9</ele></trkpt>
    <trkpt lat="46.8140773" lon="-71.2504975"><ele>8.8</ele></trkpt>
    <trkpt lat="46.8140089" lon="-71.2505305"><ele>8.8</ele></trkpt>
    <trkpt lat="46.8138698" lon="-71.2506497"><ele>8.6</ele></trkpt>
    <trkpt lat="46.8138179" lon="-71.2506717"><ele>8.5</ele></trkpt>
    <trkpt lat="46.8137460" lon="-71.2506779"><ele>8.4</ele></trkpt>
    <trkpt lat="46.8136759" lon="-71.2507019"><ele>8.3</ele></trkpt>
    <trkpt lat="46.8135104" lon="-71.2508048"><ele>8.0</ele></trkpt>
    <trkpt lat="46.8132487" lon="-71.2510368"><ele>7.8</ele></trkpt>
    <trkpt lat="46.8128969" lon="-71.2514468"><ele>7.8</ele></trkpt>
    <trkpt lat="46.8128360" lon="-71.2515433"><ele>7.9</ele></trkpt>
    <trkpt lat="46.8127755" lon="-71.2516734"><ele>8.0</ele></trkpt>
    <trkpt lat="46.8124943" lon="-71.2520804"><ele>8.3</ele></trkpt>
    <trkpt lat="46.8123346" lon="-71.2522928"><ele>8.3</ele></trkpt>
    <trkpt lat="46.8121897" lon="-71.2524490"><ele>8.4</ele></trkpt>
    <trkpt lat="46.8120182" lon="-71.2525936"><ele>8.4</ele></trkpt>
    <trkpt lat="46.8118388" lon="-71.2527164"><ele>8.4</ele></trkpt>
    <trkpt lat="46.8113389" lon="-71.2529381"><ele>8.8</ele></trkpt>
    <trkpt lat="46.8112740" lon="-71.2529833"><ele>8.9</ele></trkpt>
    <trkpt lat="46.8112078" lon="-71.2530719"><ele>9.1</ele></trkpt>
    <trkpt lat="46.8111053" lon="-71.2532876"><ele>9.6</ele></trkpt>
    <trkpt lat="46.8110532" lon="-71.2533601"><ele>9.8</ele></trkpt>
    <trkpt lat="46.8109632" lon="-71.2534471"><ele>10.0</ele></trkpt>
    <trkpt lat="46.8108347" lon="-71.2535421"><ele>10.0</ele></trkpt>
    <trkpt lat="46.8107405" lon="-71.2536640"><ele>9.8</ele></trkpt>
    <trkpt lat="46.8106589" lon="-71.2538037"><ele>9.5</ele></trkpt>
    <trkpt lat="46.8106083" lon="-71.2539122"><ele>9.3</ele></trkpt>
    <trkpt lat="46.8105432" lon="-71.2540995"><ele>9.0</ele></trkpt>
    <trkpt lat="46.8104497" lon="-71.2545788"><ele>8.6</ele></trkpt>
    <trkpt lat="46.8103610" lon="-71.2548658"><ele>8.5</ele></trkpt>
    <trkpt lat="46.8101601" lon="-71.2553326"><ele>8.5</ele></trkpt>
    <trkpt lat="46.8101125" lon="-71.2554115"><ele>8.5</ele></trkpt>
    <trkpt lat="46.8099298" lon="-71.2556214"><ele>8.5</ele></trkpt>
    <trkpt lat="46.8099071" lon="-71.2556929"><ele>8.6</ele></trkpt>
    <trkpt lat="46.8098584" lon="-71.2559455"><ele>8.9</ele></trkpt>
    <trkpt lat="46.8098185" lon="-71.2560917"><ele>9.2</ele></trkpt>
    <trkpt lat="46.8097118" lon="-71.2563350"><ele>9.5</ele></trkpt>
    <trkpt lat="46.8097002" lon="-71.2563435"><ele>9.5</ele></trkpt>
    <trkpt lat="46.8091114" lon="-71.2557375"><ele>10.8</ele></trkpt>
    <trkpt lat="46.8088522" lon="-71.2555001"><ele>11.4</ele></trkpt>
    <trkpt lat="46.8084577" lon="-71.2550851"><ele>13.1</ele></trkpt>
    <trkpt lat="46.8076476" lon="-71.2541229"><ele>17.1</ele></trkpt>
    <trkpt lat="46.8075047" lon="-71.2540119"><ele>17.3</ele></trkpt>
    <trkpt lat="46.8074820" lon="-71.2541031"><ele>17.4</ele></trkpt>
    <trkpt lat="46.8074474" lon="-71.2543606"><ele>17.3</ele></trkpt>
    <trkpt lat="46.8074353" lon="-71.2549375"><ele>16.5</ele></trkpt>
    <trkpt lat="46.8074568" lon="-71.2553299"><ele>15.8</ele></trkpt>
    <trkpt lat="46.8075255" lon="-71.2560049"><ele>15.4</ele></trkpt>
    <trkpt lat="46.8075486" lon="-71.2563971"><ele>15.3</ele></trkpt>
    <trkpt lat="46.8075452" lon="-71.2567120"><ele>15.4</ele></trkpt>
    <trkpt lat="46.8075089" lon="-71.2570754"><ele>15.5</ele></trkpt>
    <trkpt lat="46.8074706" lon="-71.2572776"><ele>15.5</ele></trkpt>
    <trkpt lat="46.8073757" lon="-71.2575896"><ele>15.4</ele></trkpt>
    <trkpt lat="46.8070731" lon="-71.2583042"><ele>15.4</ele></trkpt>
    <trkpt lat="46.8069049" lon="-71.2587682"><ele>15.3</ele></trkpt>
    <trkpt lat="46.8067707" lon="-71.2593392"><ele>15.3</ele></trkpt>
    <trkpt lat="46.8064255" lon="-71.2614047"><ele>17.2</ele></trkpt>
    <trkpt lat="46.8060746" lon="-71.2609951"><ele>17.7</ele></trkpt>
    <trkpt lat="46.8046695" lon="-71.2592685"><ele>19.7</ele></trkpt>
    <trkpt lat="46.8046091" lon="-71.2592115"><ele>19.8</ele></trkpt>
    <trkpt lat="46.8045490" lon="-71.2591742"><ele>19.8</ele></trkpt>
    <trkpt lat="46.8046036" lon="-71.2589522"><ele>19.9</ele></trkpt>
    <trkpt lat="46.8046715" lon="-71.2587976"><ele>19.9</ele></trkpt>
    <trkpt lat="46.8047298" lon="-71.2586975"><ele>19.9</ele></trkpt>
    <trkpt lat="46.8048937" lon="-71.2584540"><ele>19.8</ele></trkpt>
    <trkpt lat="46.8053004" lon="-71.2579759"><ele>19.4</ele></trkpt>
    <trkpt lat="46.8055085" lon="-71.2576852"><ele>19.2</ele></trkpt>
    <trkpt lat="46.8056853" lon="-71.2573877"><ele>19.0</ele></trkpt>
    <trkpt lat="46.8058260" lon="-71.2570211"><ele>19.0</ele></trkpt>
    <trkpt lat="46.8059819" lon="-71.2563503"><ele>19.3</ele></trkpt>
    <trkpt lat="46.8061027" lon="-71.2557730"><ele>19.1</ele></trkpt>
    <trkpt lat="46.8061960" lon="-71.2555485"><ele>19.0</ele></trkpt>
    <trkpt lat="46.8062234" lon="-71.2554516"><ele>19.0</ele></trkpt>
    <trkpt lat="46.8064738" lon="-71.2542183"><ele>19.6</ele></trkpt>
    <trkpt lat="46.8065863" lon="-71.2537198"><ele>19.6</ele></trkpt>
    <trkpt lat="46.8066295" lon="-71.2535754"><ele>19.5</ele></trkpt>
    <trkpt lat="46.8068056" lon="-71.2532431"><ele>19.4</ele></trkpt>
    <trkpt lat="46.8068169" lon="-71.2532262"><ele>19.4</ele></trkpt>
    <trkpt lat="46.8073905" lon="-71.2539047"><ele>18.2</ele></trkpt>
    <trkpt lat="46.8074963" lon="-71.2540048"><ele>18.1</ele></trkpt>
    <trkpt lat="46.8075041" lon="-71.2539906"><ele>18.1</ele></trkpt>
    <trkpt lat="46.8075338" lon="-71.2538392"><ele>18.0</ele></trkpt>
    <trkpt lat="46.8077750" lon="-71.2529621"><ele>18.3</ele></trkpt>
    <trkpt lat="46.8082715" lon="-71.2513593"><ele>18.0</ele></trkpt>
    <trkpt lat="46.8085472" lon="-71.2505934"><ele>17.8</ele></trkpt>
    <trkpt lat="46.8086193" lon="-71.2505899"><ele>17.8</ele></trkpt>
    <trkpt lat="46.8086339" lon="-71.2506034"><ele>17.7</ele></trkpt>
    <trkpt lat="46.8099643" lon="-71.2521733"><ele>12.3</ele></trkpt>
    <trkpt lat="46.8099929" lon="-71.2522666"><ele>12.1</ele></trkpt>
    <trkpt lat="46.8101625" lon="-71.2523552"><ele>11.6</ele></trkpt>
    <trkpt lat="46.8103481" lon="-71.2525166"><ele>11.4</ele></trkpt>
    <trkpt lat="46.8104156" lon="-71.2525528"><ele>11.5</ele></trkpt>
    <trkpt lat="46.8104277" lon="-71.2525448"><ele>11.5</ele></trkpt>
    <trkpt lat="46.8104686" lon="-71.2524289"><ele>11.6</ele></trkpt>
    <trkpt lat="46.8105195" lon="-71.2523546"><ele>11.7</ele></trkpt>
    <trkpt lat="46.8105930" lon="-71.2522788"><ele>11.9</ele></trkpt>
    <trkpt lat="46.8106926" lon="-71.2522191"><ele>11.9</ele></trkpt>
    <trkpt lat="46.8109601" lon="-71.2521626"><ele>11.7</ele></trkpt>
    <trkpt lat="46.8111367" lon="-71.2521101"><ele>11.3</ele></trkpt>
    <trkpt lat="46.8112519" lon="-71.2520352"><ele>10.9</ele></trkpt>
    <trkpt lat="46.8115194" lon="-71.2518178"><ele>10.2</ele></trkpt>
    <trkpt lat="46.8117254" lon="-71.2516055"><ele>9.8</ele></trkpt>
    <trkpt lat="46.8118490" lon="-71.2514524"><ele>9.7</ele></trkpt>
    <trkpt lat="46.8119380" lon="-71.2513225"><ele>9.6</ele></trkpt>
    <trkpt lat="46.8120245" lon="-71.2512279"><ele>9.5</ele></trkpt>
    <trkpt lat="46.8121222" lon="-71.2511605"><ele>9.4</ele></trkpt>
    <trkpt lat="46.8124620" lon="-71.2509857"><ele>9.0</ele></trkpt>
    <trkpt lat="46.8128506" lon="-71.2505594"><ele>9.0</ele></trkpt>
    <trkpt lat="46.8130148" lon="-71.2503980"><ele>9.0</ele></trkpt>
    <trkpt lat="46.8131007" lon="-71.2502643"><ele>8.9</ele></trkpt>
    <trkpt lat="46.8132716" lon="-71.2500716"><ele>8.8</ele></trkpt>
    <trkpt lat="46.8134210" lon="-71.2498818"><ele>8.7</ele></trkpt>
    <trkpt lat="46.8135326" lon="-71.2497103"><ele>8.8</ele></trkpt>
    <trkpt lat="46.8135995" lon="-71.2495868"><ele>8.8</ele></trkpt>
    <trkpt lat="46.8136052" lon="-71.2495092"><ele>8.8</ele></trkpt>
    <trkpt lat="46.8135946" lon="-71.2494320"><ele>8.9</ele></trkpt>
    <trkpt lat="46.8135467" lon="-71.2492361"><ele>9.0</ele></trkpt>
    <trkpt lat="46.8135689" lon="-71.2491100"><ele>9.1</ele></trkpt>
    <trkpt lat="46.8141670" lon="-71.2475825"><ele>9.9</ele></trkpt>
    <trkpt lat="46.8141918" lon="-71.2474841"><ele>9.9</ele></trkpt>
    <trkpt lat="46.8141982" lon="-71.2473536"><ele>10.0</ele></trkpt>
    <trkpt lat="46.8141726" lon="-71.2469618"><ele>10.0</ele></trkpt>
    <trkpt lat="46.8141632" lon="-71.2466472"><ele>10.1</ele></trkpt>
    <trkpt lat="46.8141728" lon="-71.2465170"><ele>10.0</ele></trkpt>
    <trkpt lat="46.8142092" lon="-71.2463410"><ele>10.0</ele></trkpt>
    <trkpt lat="46.8142213" lon="-71.2462377"><ele>10.0</ele></trkpt>
    <trkpt lat="46.8142228" lon="-71.2460277"><ele>9.9</ele></trkpt>
    <trkpt lat="46.8142015" lon="-71.2457936"><ele>10.0</ele></trkpt>
    <trkpt lat="46.8142021" lon="-71.2456888"><ele>10.0</ele></trkpt>
    <trkpt lat="46.8142227" lon="-71.2455343"><ele>10.1</ele></trkpt>
    <trkpt lat="46.8142606" lon="-71.2453592"><ele>10.2</ele></trkpt>
    <trkpt lat="46.8143096" lon="-71.2449189"><ele>10.3</ele></trkpt>
    <trkpt lat="46.8143702" lon="-71.2446443"><ele>10.4</ele></trkpt>
    <trkpt lat="46.8143001" lon="-71.2445310"><ele>10.6</ele></trkpt>
    <trkpt lat="46.8138891" lon="-71.2440606"><ele>12.2</ele></trkpt>
    <trkpt lat="46.8131502" lon="-71.2431790"><ele>15.2</ele></trkpt>
    <trkpt lat="46.8123990" lon="-71.2423196"><ele>16.6</ele></trkpt>
    <trkpt lat="46.8116819" lon="-71.2414408"><ele>18.4</ele></trkpt>
    <trkpt lat="46.8113008" lon="-71.2410001"><ele>19.2</ele></trkpt>
    <trkpt lat="46.8111242" lon="-71.2407758"><ele>19.6</ele></trkpt>
    <trkpt lat="46.8110762" lon="-71.2407401"><ele>19.6</ele></trkpt>
    <trkpt lat="46.8110230" lon="-71.2407297"><ele>19.7</ele></trkpt>
    <trkpt lat="46.8110222" lon="-71.2407141"><ele>19.7</ele></trkpt>
    <trkpt lat="46.8111093" lon="-71.2404843"><ele>19.7</ele></trkpt>
    <trkpt lat="46.8113854" lon="-71.2399010"><ele>19.4</ele></trkpt>
    <trkpt lat="46.8116312" lon="-71.2394820"><ele>18.9</ele></trkpt>
    <trkpt lat="46.8118211" lon="-71.2392018"><ele>18.5</ele></trkpt>
    <trkpt lat="46.8120043" lon="-71.2388778"><ele>18.3</ele></trkpt>
    <trkpt lat="46.8120598" lon="-71.2387426"><ele>18.3</ele></trkpt>
    <trkpt lat="46.8121034" lon="-71.2385985"><ele>18.2</ele></trkpt>
    <trkpt lat="46.8121324" lon="-71.2384469"><ele>18.2</ele></trkpt>
    <trkpt lat="46.8121513" lon="-71.2382389"><ele>18.1</ele></trkpt>
    <trkpt lat="46.8121565" lon="-71.2378718"><ele>17.9</ele></trkpt>
    <trkpt lat="46.8121211" lon="-71.2370600"><ele>17.9</ele></trkpt>
    <trkpt lat="46.8120767" lon="-71.2365657"><ele>18.0</ele></trkpt>
    <trkpt lat="46.8118827" lon="-71.2349633"><ele>18.2</ele></trkpt>
    <trkpt lat="46.8119325" lon="-71.2349400"><ele>18.1</ele></trkpt>
    <trkpt lat="46.8119822" lon="-71.2349651"><ele>18.1</ele></trkpt>
    <trkpt lat="46.8122042" lon="-71.2351898"><ele>17.1</ele></trkpt>
    <trkpt lat="46.8125569" lon="-71.2356389"><ele>15.9</ele></trkpt>
    <trkpt lat="46.8129880" lon="-71.2362357"><ele>15.0</ele></trkpt>
    <trkpt lat="46.8132312" lon="-71.2365484"><ele>14.6</ele></trkpt>
    <trkpt lat="46.8133135" lon="-71.2365983"><ele>14.6</ele></trkpt>
    <trkpt lat="46.8133719" lon="-71.2367268"><ele>14.6</ele></trkpt>
    <trkpt lat="46.8136647" lon="-71.2371160"><ele>14.4</ele></trkpt>
    <trkpt lat="46.8149388" lon="-71.2362586"><ele>11.7</ele></trkpt>
    <trkpt lat="46.8150287" lon="-71.2362651"><ele>11.4</ele></trkpt>
    <trkpt lat="46.8151534" lon="-71.2362390"><ele>11.0</ele></trkpt>
    <trkpt lat="46.8152433" lon="-71.2362481"><ele>10.7</ele></trkpt>
    <trkpt lat="46.8152952" lon="-71.2362676"><ele>10.6</ele></trkpt>
    <trkpt lat="46.8153853" lon="-71.2362653"><ele>10.4</ele></trkpt>
    <trkpt lat="46.8155942" lon="-71.2361845"><ele>10.0</ele></trkpt>
    <trkpt lat="46.8157016" lon="-71.2361660"><ele>9.9</ele></trkpt>
    <trkpt lat="46.8157724" lon="-71.2361853"><ele>9.8</ele></trkpt>
    <trkpt lat="46.8158339" lon="-71.2362399"><ele>9.8</ele></trkpt>
    <trkpt lat="46.8159162" lon="-71.2363789"><ele>9.7</ele></trkpt>
    <trkpt lat="46.8160290" lon="-71.2366475"><ele>9.6</ele></trkpt>
    <trkpt lat="46.8160275" lon="-71.2367260"><ele>9.7</ele></trkpt>
    <trkpt lat="46.8159732" lon="-71.2371117"><ele>9.8</ele></trkpt>
    <trkpt lat="46.8159174" lon="-71.2376567"><ele>10.0</ele></trkpt>
    <trkpt lat="46.8158898" lon="-71.2384428"><ele>9.9</ele></trkpt>
    <trkpt lat="46.8160336" lon="-71.2385450"><ele>9.7</ele></trkpt>
    <trkpt lat="46.8161008" lon="-71.2386312"><ele>9.6</ele></trkpt>
    <trkpt lat="46.8161312" lon="-71.2387264"><ele>9.6</ele></trkpt>
    <trkpt lat="46.8161287" lon="-71.2390136"><ele>9.7</ele></trkpt>
    <trkpt lat="46.8161783" lon="-71.2392927"><ele>9.8</ele></trkpt>
    <trkpt lat="46.8162496" lon="-71.2398873"><ele>9.6</ele></trkpt>
    <trkpt lat="46.8163227" lon="-71.2398292"><ele>9.6</ele></trkpt>
    <trkpt lat="46.8167623" lon="-71.2393711"><ele>9.6</ele></trkpt>
    <trkpt lat="46.8168725" lon="-71.2392817"><ele>9.6</ele></trkpt>
    <trkpt lat="46.8169748" lon="-71.2392309"><ele>9.6</ele></trkpt>
    <trkpt lat="46.8172361" lon="-71.2390533"><ele>9.5</ele></trkpt>
    <trkpt lat="46.8174090" lon="-71.2388646"><ele>9.5</ele></trkpt>
    <trkpt lat="46.8175436" lon="-71.2387912"><ele>9.5</ele></trkpt>
    <trkpt lat="46.8177572" lon="-71.2387418"><ele>9.4</ele></trkpt>
    <trkpt lat="46.8180624" lon="-71.2387029"><ele>9.3</ele></trkpt>
    <trkpt lat="46.8185485" lon="-71.2386679"><ele>9.0</ele></trkpt>
    <trkpt lat="46.8187107" lon="-71.2386685"><ele>8.9</ele></trkpt>
    <trkpt lat="46.8188901" lon="-71.2386906"><ele>8.8</ele></trkpt>
    <trkpt lat="46.8191027" lon="-71.2387483"><ele>8.7</ele></trkpt>
    <trkpt lat="46.8193271" lon="-71.2388461"><ele>8.6</ele></trkpt>
    <trkpt lat="46.8197693" lon="-71.2389719"><ele>8.5</ele></trkpt>
    <trkpt lat="46.8203564" lon="-71.2392277"><ele>8.6</ele></trkpt>
    <trkpt lat="46.8205130" lon="-71.2392890"><ele>8.7</ele></trkpt>
    <trkpt lat="46.8205848" lon="-71.2392988"><ele>8.8</ele></trkpt>
    <trkpt lat="46.8206565" lon="-71.2392892"><ele>8.8</ele></trkpt>
    <trkpt lat="46.8207399" lon="-71.2392397"><ele>8.9</ele></trkpt>
    <trkpt lat="46.8207858" lon="-71.2391983"><ele>8.9</ele></trkpt>
    <trkpt lat="46.8208356" lon="-71.2391229"><ele>8.9</ele></trkpt>
    <trkpt lat="46.8209192" lon="-71.2389207"><ele>9.0</ele></trkpt>
    <trkpt lat="46.8210054" lon="-71.2388263"><ele>9.0</ele></trkpt>
    <trkpt lat="46.8211945" lon="-71.2387405"><ele>8.9</ele></trkpt>
    <trkpt lat="46.8212641" lon="-71.2387135"><ele>8.9</ele></trkpt>
    <trkpt lat="46.8213176" lon="-71.2387091"><ele>8.9</ele></trkpt>
    <trkpt lat="46.8214023" lon="-71.2387532"><ele>9.0</ele></trkpt>
    <trkpt lat="46.8215105" lon="-71.2388465"><ele>9.1</ele></trkpt>
    <trkpt lat="46.8215463" lon="-71.2388518"><ele>9.1</ele></trkpt>
    <trkpt lat="46.8216352" lon="-71.2388323"><ele>9.1</ele></trkpt>
    <trkpt lat="46.8217719" lon="-71.2387672"><ele>9.2</ele></trkpt>
    <trkpt lat="46.8218611" lon="-71.2387816"><ele>9.2</ele></trkpt>
    <trkpt lat="46.8219136" lon="-71.2387662"><ele>9.2</ele></trkpt>
    <trkpt lat="46.8220796" lon="-71.2386649"><ele>9.2</ele></trkpt>
    <trkpt lat="46.8221859" lon="-71.2386359"><ele>9.3</ele></trkpt>
    <trkpt lat="46.8222542" lon="-71.2386028"><ele>9.3</ele></trkpt>
    <trkpt lat="46.8225622" lon="-71.2383849"><ele>9.5</ele></trkpt>
    <trkpt lat="46.8228356" lon="-71.2380849"><ele>9.6</ele></trkpt>
    <trkpt lat="46.8228960" lon="-71.2379881"><ele>9.6</ele></trkpt>
    <trkpt lat="46.8229423" lon="-71.2378458"><ele>9.7</ele></trkpt>
    <trkpt lat="46.8229915" lon="-71.2375136"><ele>9.7</ele></trkpt>
    <trkpt lat="46.8230252" lon="-71.2374524"><ele>9.7</ele></trkpt>
    <trkpt lat="46.8231573" lon="-71.2373161"><ele>9.7</ele></trkpt>
    <trkpt lat="46.8231961" lon="-71.2372615"><ele>9.6</ele></trkpt>
    <trkpt lat="46.8232370" lon="-71.2371449"><ele>9.6</ele></trkpt>
    <trkpt lat="46.8233009" lon="-71.2368717"><ele>9.5</ele></trkpt>
    <trkpt lat="46.8233306" lon="-71.2366932"><ele>9.5</ele></trkpt>
    <trkpt lat="46.8233488" lon="-71.2365114"><ele>9.6</ele></trkpt>
    <trkpt lat="46.8233571" lon="-71.2362497"><ele>9.5</ele></trkpt>
    <trkpt lat="46.8233370" lon="-71.2361500"><ele>9.5</ele></trkpt>
    <trkpt lat="46.8232858" lon="-71.2360114"><ele>9.6</ele></trkpt>
    <trkpt lat="46.8232201" lon="-71.2354961"><ele>9.6</ele></trkpt>
    <trkpt lat="46.8231170" lon="-71.2351325"><ele>9.4</ele></trkpt>
    <trkpt lat="46.8229656" lon="-71.2347751"><ele>9.2</ele></trkpt>
    <trkpt lat="46.8229180" lon="-71.2346967"><ele>9.2</ele></trkpt>
    <trkpt lat="46.8228211" lon="-71.2345793"><ele>9.2</ele></trkpt>
    <trkpt lat="46.8227363" lon="-71.2344432"><ele>9.1</ele></trkpt>
    <trkpt lat="46.8226632" lon="-71.2342325"><ele>9.0</ele></trkpt>
    <trkpt lat="46.8226141" lon="-71.2339802"><ele>8.9</ele></trkpt>
    <trkpt lat="46.8225804" lon="-71.2338876"><ele>8.9</ele></trkpt>
    <trkpt lat="46.8224700" lon="-71.2337531"><ele>8.8</ele></trkpt>
    <trkpt lat="46.8223751" lon="-71.2336777"><ele>8.8</ele></trkpt>
    <trkpt lat="46.8223057" lon="-71.2335942"><ele>8.8</ele></trkpt>
    <trkpt lat="46.8222634" lon="-71.2334791"><ele>8.9</ele></trkpt>
    <trkpt lat="46.8222297" lon="-71.2333021"><ele>8.9</ele></trkpt>
    <trkpt lat="46.8221730" lon="-71.2331384"><ele>8.9</ele></trkpt>
    <trkpt lat="46.8220357" lon="-71.2328952"><ele>8.8</ele></trkpt>
    <trkpt lat="46.8219396" lon="-71.2327767"><ele>8.7</ele></trkpt>
    <trkpt lat="46.8218604" lon="-71.2327139"><ele>8.6</ele></trkpt>
    <trkpt lat="46.8218038" lon="-71.2326123"><ele>8.5</ele></trkpt>
    <trkpt lat="46.8217748" lon="-71.2325168"><ele>8.4</ele></trkpt>
    <trkpt lat="46.8217335" lon="-71.2321816"><ele>7.8</ele></trkpt>
    <trkpt lat="46.8216632" lon="-71.2320292"><ele>7.5</ele></trkpt>
    <trkpt lat="46.8215305" lon="-71.2317805"><ele>7.1</ele></trkpt>
    <trkpt lat="46.8209595" lon="-71.2308692"><ele>5.7</ele></trkpt>
    <trkpt lat="46.8209191" lon="-71.2308176"><ele>5.7</ele></trkpt>
    <trkpt lat="46.8208017" lon="-71.2307509"><ele>5.7</ele></trkpt>
    <trkpt lat="46.8207515" lon="-71.2306760"><ele>5.6</ele></trkpt>
    <trkpt lat="46.8207140" lon="-71.2305868"><ele>5.6</ele></trkpt>
    <trkpt lat="46.8206849" lon="-71.2304353"><ele>5.5</ele></trkpt>
    <trkpt lat="46.8206342" lon="-71.2302673"><ele>5.4</ele></trkpt>
    <trkpt lat="46.8205051" lon="-71.2300147"><ele>5.2</ele></trkpt>
    <trkpt lat="46.8201191" lon="-71.2294265"><ele>5.2</ele></trkpt>
    <trkpt lat="46.8199231" lon="-71.2290837"><ele>5.3</ele></trkpt>
    <trkpt lat="46.8195893" lon="-71.2285681"><ele>5.6</ele></trkpt>
    <trkpt lat="46.8194712" lon="-71.2283698"><ele>5.8</ele></trkpt>
    <trkpt lat="46.8193389" lon="-71.2280883"><ele>5.8</ele></trkpt>
    <trkpt lat="46.8192387" lon="-71.2277799"><ele>5.8</ele></trkpt>
    <trkpt lat="46.8191602" lon="-71.2275731"><ele>5.7</ele></trkpt>
    <trkpt lat="46.8190299" lon="-71.2272899"><ele>5.8</ele></trkpt>
    <trkpt lat="46.8189687" lon="-71.2271938"><ele>5.8</ele></trkpt>
    <trkpt lat="46.8189249" lon="-71.2271476"><ele>5.9</ele></trkpt>
    <trkpt lat="46.8187532" lon="-71.2270053"><ele>6.0</ele></trkpt>
    <trkpt lat="46.8187061" lon="-71.2268937"><ele>6.0</ele></trkpt>
    <trkpt lat="46.8186639" lon="-71.2267489"><ele>6.1</ele></trkpt>
    <trkpt lat="46.8186038" lon="-71.2266528"><ele>6.2</ele></trkpt>
    <trkpt lat="46.8184356" lon="-71.2265602"><ele>6.3</ele></trkpt>
    <trkpt lat="46.8183766" lon="-71.2265017"><ele>6.3</ele></trkpt>
    <trkpt lat="46.8182811" lon="-71.2263109"><ele>6.4</ele></trkpt>
    <trkpt lat="46.8182267" lon="-71.2261165"><ele>6.4</ele></trkpt>
    <trkpt lat="46.8182082" lon="-71.2259881"><ele>6.4</ele></trkpt>
    <trkpt lat="46.8181886" lon="-71.2254117"><ele>6.4</ele></trkpt>
    <trkpt lat="46.8181945" lon="-71.2252545"><ele>6.4</ele></trkpt>
    <trkpt lat="46.8182207" lon="-71.2251021"><ele>6.3</ele></trkpt>
    <trkpt lat="46.8182820" lon="-71.2248835"><ele>6.3</ele></trkpt>
    <trkpt lat="46.8183075" lon="-71.2246510"><ele>6.2</ele></trkpt>
    <trkpt lat="46.8183434" lon="-71.2244748"><ele>6.1</ele></trkpt>
    <trkpt lat="46.8184248" lon="-71.2242709"><ele>5.9</ele></trkpt>
    <trkpt lat="46.8184841" lon="-71.2241723"><ele>5.9</ele></trkpt>
    <trkpt lat="46.8186782" lon="-71.2239379"><ele>5.7</ele></trkpt>
    <trkpt lat="46.8187826" lon="-71.2238350"><ele>5.8</ele></trkpt>
    <trkpt lat="46.8188230" lon="-71.2237498"><ele>5.8</ele></trkpt>
    <trkpt lat="46.8189199" lon="-71.2232445"><ele>6.0</ele></trkpt>
    <trkpt lat="46.8190720" lon="-71.2225718"><ele>5.6</ele></trkpt>
    <trkpt lat="46.8190704" lon="-71.2224941"><ele>5.5</ele></trkpt>
    <trkpt lat="46.8190578" lon="-71.2224449"><ele>5.5</ele></trkpt>
    <trkpt lat="46.8189943" lon="-71.2222882"><ele>5.4</ele></trkpt>
    <trkpt lat="46.8189940" lon="-71.2221313"><ele>5.4</ele></trkpt>
    <trkpt lat="46.8190070" lon="-71.2220824"><ele>5.4</ele></trkpt>
    <trkpt lat="46.8190861" lon="-71.2219395"><ele>5.5</ele></trkpt>
    <trkpt lat="46.8191813" lon="-71.2216283"><ele>5.5</ele></trkpt>
    <trkpt lat="46.8192110" lon="-71.2215628"><ele>5.6</ele></trkpt>
    <trkpt lat="46.8193719" lon="-71.2213957"><ele>5.7</ele></trkpt>
    <trkpt lat="46.8194153" lon="-71.2213122"><ele>5.8</ele></trkpt>
    <trkpt lat="46.8195097" lon="-71.2210288"><ele>6.0</ele></trkpt>
    <trkpt lat="46.8196339" lon="-71.2205641"><ele>6.1</ele></trkpt>
    <trkpt lat="46.8196525" lon="-71.2204091"><ele>6.1</ele></trkpt>
    <trkpt lat="46.8196896" lon="-71.2202337"><ele>6.2</ele></trkpt>
    <trkpt lat="46.8199174" lon="-71.2194908"><ele>6.2</ele></trkpt>
    <trkpt lat="46.8199410" lon="-71.2193644"><ele>6.1</ele></trkpt>
    <trkpt lat="46.8199415" lon="-71.2192862"><ele>6.1</ele></trkpt>
    <trkpt lat="46.8199183" lon="-71.2191870"><ele>6.2</ele></trkpt>
    <trkpt lat="46.8198776" lon="-71.2190699"><ele>6.2</ele></trkpt>
    <trkpt lat="46.8198652" lon="-71.2189933"><ele>6.2</ele></trkpt>
    <trkpt lat="46.8198624" lon="-71.2189149"><ele>6.2</ele></trkpt>
    <trkpt lat="46.8198726" lon="-71.2188378"><ele>6.2</ele></trkpt>
    <trkpt lat="46.8199039" lon="-71.2187147"><ele>6.2</ele></trkpt>
    <trkpt lat="46.8199484" lon="-71.2186010"><ele>6.2</ele></trkpt>
    <trkpt lat="46.8200106" lon="-71.2185070"><ele>6.1</ele></trkpt>
    <trkpt lat="46.8201653" lon="-71.2183738"><ele>6.0</ele></trkpt>
    <trkpt lat="46.8202103" lon="-71.2182924"><ele>6.0</ele></trkpt>
    <trkpt lat="46.8202314" lon="-71.2182199"><ele>6.0</ele></trkpt>
    <trkpt lat="46.8202577" lon="-71.2180673"><ele>5.9</ele></trkpt>
    <trkpt lat="46.8203016" lon="-71.2176257"><ele>6.0</ele></trkpt>
    <trkpt lat="46.8203411" lon="-71.2170777"><ele>6.0</ele></trkpt>
    <trkpt lat="46.8203915" lon="-71.2168811"><ele>5.9</ele></trkpt>
    <trkpt lat="46.8204285" lon="-71.2165709"><ele>5.8</ele></trkpt>
    <trkpt lat="46.8204550" lon="-71.2164183"><ele>5.8</ele></trkpt>
    <trkpt lat="46.8205397" lon="-71.2161293"><ele>5.8</ele></trkpt>
    <trkpt lat="46.8206844" lon="-71.2158284"><ele>5.9</ele></trkpt>
    <trkpt lat="46.8206549" lon="-71.2156786"><ele>5.9</ele></trkpt>
    <trkpt lat="46.8206448" lon="-71.2156596"><ele>5.9</ele></trkpt>
    <trkpt lat="46.8205958" lon="-71.2156265"><ele>5.9</ele></trkpt>
    <trkpt lat="46.8205095" lon="-71.2155886"><ele>5.9</ele></trkpt>
    <trkpt lat="46.8196301" lon="-71.2153015"><ele>6.0</ele></trkpt>
    <trkpt lat="46.8193697" lon="-71.2151957"><ele>6.1</ele></trkpt>
    <trkpt lat="46.8192177" lon="-71.2151133"><ele>6.1</ele></trkpt>
    <trkpt lat="46.8190332" lon="-71.2149493"><ele>6.1</ele></trkpt>
    <trkpt lat="46.8188744" lon="-71.2147354"><ele>6.1</ele></trkpt>
    <trkpt lat="46.8187162" lon="-71.2144492"><ele>6.2</ele></trkpt>
    <trkpt lat="46.8186050" lon="-71.2141490"><ele>6.2</ele></trkpt>
    <trkpt lat="46.8185042" lon="-71.2138410"><ele>6.2</ele></trkpt>
    <trkpt lat="46.8184244" lon="-71.2135483"><ele>6.3</ele></trkpt>
    <trkpt lat="46.8181929" lon="-71.2124988"><ele>6.4</ele></trkpt>
    <trkpt lat="46.8179404" lon="-71.2114597"><ele>6.5</ele></trkpt>
    <trkpt lat="46.8176848" lon="-71.2102561"><ele>6.6</ele></trkpt>
    <trkpt lat="46.8175990" lon="-71.2100564"><ele>6.7</ele></trkpt>
    <trkpt lat="46.8175113" lon="-71.2097981"><ele>7.0</ele></trkpt>
    <trkpt lat="46.8174473" lon="-71.2097068"><ele>7.1</ele></trkpt>
    <trkpt lat="46.8173403" lon="-71.2096096"><ele>7.3</ele></trkpt>
    <trkpt lat="46.8172567" lon="-71.2095615"><ele>7.4</ele></trkpt>
    <trkpt lat="46.8170266" lon="-71.2095026"><ele>8.3</ele></trkpt>
    <trkpt lat="46.8167823" lon="-71.2096694"><ele>10.3</ele></trkpt>
    <trkpt lat="46.8165735" lon="-71.2100310"><ele>13.8</ele></trkpt>
    <trkpt lat="46.8164988" lon="-71.2101789"><ele>15.2</ele></trkpt>
    <trkpt lat="46.8158074" lon="-71.2117781"><ele>20.8</ele></trkpt>
    <trkpt lat="46.8157578" lon="-71.2118535"><ele>21.1</ele></trkpt>
    <trkpt lat="46.8157290" lon="-71.2118850"><ele>21.2</ele></trkpt>
    <trkpt lat="46.8157172" lon="-71.2118815"><ele>21.2</ele></trkpt>
    <trkpt lat="46.8156991" lon="-71.2118361"><ele>21.3</ele></trkpt>
    <trkpt lat="46.8158739" lon="-71.2112608"><ele>23.2</ele></trkpt>
    <trkpt lat="46.8159141" lon="-71.2111433"><ele>23.4</ele></trkpt>
    <trkpt lat="46.8161616" lon="-71.2105638"><ele>23.5</ele></trkpt>
    <trkpt lat="46.8162534" lon="-71.2103082"><ele>23.2</ele></trkpt>
    <trkpt lat="46.8163217" lon="-71.2100374"><ele>22.9</ele></trkpt>
    <trkpt lat="46.8163850" lon="-71.2096548"><ele>22.5</ele></trkpt>
    <trkpt lat="46.8163860" lon="-71.2095763"><ele>22.4</ele></trkpt>
    <trkpt lat="46.8163663" lon="-71.2094487"><ele>22.3</ele></trkpt>
    <trkpt lat="46.8161992" lon="-71.2088394"><ele>22.5</ele></trkpt>
    <trkpt lat="46.8161819" lon="-71.2087380"><ele>22.5</ele></trkpt>
    <trkpt lat="46.8161885" lon="-71.2084758"><ele>22.6</ele></trkpt>
    <trkpt lat="46.8162025" lon="-71.2083999"><ele>22.6</ele></trkpt>
    <trkpt lat="46.8162752" lon="-71.2081887"><ele>22.5</ele></trkpt>
    <trkpt lat="46.8162984" lon="-71.2080355"><ele>22.6</ele></trkpt>
    <trkpt lat="46.8162857" lon="-71.2079323"><ele>22.7</ele></trkpt>
    <trkpt lat="46.8162007" lon="-71.2075866"><ele>23.5</ele></trkpt>
    <trkpt lat="46.8161332" lon="-71.2066469"><ele>25.5</ele></trkpt>
    <trkpt lat="46.8161389" lon="-71.2065689"><ele>25.7</ele></trkpt>
    <trkpt lat="46.8161556" lon="-71.2064941"><ele>25.8</ele></trkpt>
    <trkpt lat="46.8161553" lon="-71.2062845"><ele>26.2</ele></trkpt>
    <trkpt lat="46.8160815" lon="-71.2053459"><ele>28.0</ele></trkpt>
    <trkpt lat="46.8158489" lon="-71.2043523"><ele>31.4</ele></trkpt>
    <trkpt lat="46.8158204" lon="-71.2042857"><ele>31.7</ele></trkpt>
    <trkpt lat="46.8157827" lon="-71.2042293"><ele>32.0</ele></trkpt>
    <trkpt lat="46.8157360" lon="-71.2041899"><ele>32.4</ele></trkpt>
    <trkpt lat="46.8155415" lon="-71.2040533"><ele>34.3</ele></trkpt>
    <trkpt lat="46.8153818" lon="-71.2040123"><ele>35.8</ele></trkpt>
    <trkpt lat="46.8152198" lon="-71.2039997"><ele>37.2</ele></trkpt>
    <trkpt lat="46.8149316" lon="-71.2040122"><ele>39.0</ele></trkpt>
    <trkpt lat="46.8148063" lon="-71.2040339"><ele>39.5</ele></trkpt>
    <trkpt lat="46.8145052" lon="-71.2041156"><ele>40.4</ele></trkpt>
    <trkpt lat="46.8144709" lon="-71.2041318"><ele>40.5</ele></trkpt>
    <trkpt lat="46.8144102" lon="-71.2041880"><ele>40.7</ele></trkpt>
    <trkpt lat="46.8138539" lon="-71.2048963"><ele>43.8</ele></trkpt>
    <trkpt lat="46.8137869" lon="-71.2049302"><ele>44.4</ele></trkpt>
    <trkpt lat="46.8137329" lon="-71.2049352"><ele>44.8</ele></trkpt>
    <trkpt lat="46.8137358" lon="-71.2050133"><ele>45.3</ele></trkpt>
    <trkpt lat="46.8137287" lon="-71.2050648"><ele>45.6</ele></trkpt>
    <trkpt lat="46.8137004" lon="-71.2051311"><ele>46.1</ele></trkpt>
    <trkpt lat="46.8136370" lon="-71.2052240"><ele>47.0</ele></trkpt>
    <trkpt lat="46.8135120" lon="-71.2053281"><ele>48.6</ele></trkpt>
    <trkpt lat="46.8134962" lon="-71.2053351"><ele>48.6</ele></trkpt>
    <trkpt lat="46.8134453" lon="-71.2053147"><ele>49.1</ele></trkpt>
    <trkpt lat="46.8129958" lon="-71.2053595"><ele>53.6</ele></trkpt>
    <trkpt lat="46.8125999" lon="-71.2053749"><ele>57.1</ele></trkpt>
    <trkpt lat="46.8123661" lon="-71.2053989"><ele>58.8</ele></trkpt>
    <trkpt lat="46.8123342" lon="-71.2054218"><ele>58.9</ele></trkpt>
    <trkpt lat="46.8123113" lon="-71.2054618"><ele>59.0</ele></trkpt>
    <trkpt lat="46.8122147" lon="-71.2057139"><ele>60.0</ele></trkpt>
    <trkpt lat="46.8117768" lon="-71.2069501"><ele>63.3</ele></trkpt>
    <trkpt lat="46.8115646" lon="-71.2075878"><ele>64.1</ele></trkpt>
    <trkpt lat="46.8114612" lon="-71.2078337"><ele>64.4</ele></trkpt>
    <trkpt lat="46.8101442" lon="-71.2100957"><ele>70.4</ele></trkpt>
    <trkpt lat="46.8100618" lon="-71.2102677"><ele>71.0</ele></trkpt>
    <trkpt lat="46.8094573" lon="-71.2112760"><ele>75.7</ele></trkpt>
    <trkpt lat="46.8089456" lon="-71.2120524"><ele>80.0</ele></trkpt>
    <trkpt lat="46.8086917" lon="-71.2124549"><ele>81.3</ele></trkpt>
    <trkpt lat="46.8082605" lon="-71.2118971"><ele>85.1</ele></trkpt>
    <trkpt lat="46.8079907" lon="-71.2115903"><ele>87.5</ele></trkpt>
    <trkpt lat="46.8078324" lon="-71.2114647"><ele>88.4</ele></trkpt>
    <trkpt lat="46.8077000" lon="-71.2113818"><ele>88.9</ele></trkpt>
    <trkpt lat="46.8076315" lon="-71.2113490"><ele>89.2</ele></trkpt>
    <trkpt lat="46.8075070" lon="-71.2113200"><ele>89.6</ele></trkpt>
    <trkpt lat="46.8073629" lon="-71.2113222"><ele>89.9</ele></trkpt>
    <trkpt lat="46.8072389" lon="-71.2113560"><ele>90.1</ele></trkpt>
    <trkpt lat="46.8070552" lon="-71.2114637"><ele>89.9</ele></trkpt>
    <trkpt lat="46.8068063" lon="-71.2116760"><ele>88.9</ele></trkpt>
    <trkpt lat="46.8061748" lon="-71.2122840"><ele>86.5</ele></trkpt>
    <trkpt lat="46.8060016" lon="-71.2124710"><ele>86.0</ele></trkpt>
    <trkpt lat="46.8058045" lon="-71.2125024"><ele>85.6</ele></trkpt>
    <trkpt lat="46.8056074" lon="-71.2124727"><ele>85.3</ele></trkpt>
    <trkpt lat="46.8049525" lon="-71.2121823"><ele>84.8</ele></trkpt>
    <trkpt lat="46.8047185" lon="-71.2121925"><ele>84.2</ele></trkpt>
    <trkpt lat="46.8045638" lon="-71.2122637"><ele>83.8</ele></trkpt>
    <trkpt lat="46.8043919" lon="-71.2124545"><ele>83.3</ele></trkpt>
    <trkpt lat="46.8042895" lon="-71.2126023"><ele>82.9</ele></trkpt>
    <trkpt lat="46.8038081" lon="-71.2134185"><ele>79.7</ele></trkpt>
    <trkpt lat="46.8036077" lon="-71.2137205"><ele>78.2</ele></trkpt>
    <trkpt lat="46.8034538" lon="-71.2139024"><ele>77.5</ele></trkpt>
    <trkpt lat="46.8032573" lon="-71.2140881"><ele>77.3</ele></trkpt>
    <trkpt lat="46.8023348" lon="-71.2147466"><ele>74.5</ele></trkpt>
    <trkpt lat="46.8020704" lon="-71.2149721"><ele>72.0</ele></trkpt>
    <trkpt lat="46.8018346" lon="-71.2152138"><ele>69.6</ele></trkpt>
    <trkpt lat="46.8015078" lon="-71.2155854"><ele>67.0</ele></trkpt>
    <trkpt lat="46.8012654" lon="-71.2158994"><ele>65.8</ele></trkpt>
    <trkpt lat="46.8011275" lon="-71.2161067"><ele>65.5</ele></trkpt>
    <trkpt lat="46.8008228" lon="-71.2166249"><ele>65.6</ele></trkpt>
    <trkpt lat="46.7997330" lon="-71.2186157"><ele>65.3</ele></trkpt>
    <trkpt lat="46.7989740" lon="-71.2202127"><ele>69.9</ele></trkpt>
    <trkpt lat="46.7988977" lon="-71.2204500"><ele>70.3</ele></trkpt>
    <trkpt lat="46.7987676" lon="-71.2207015"><ele>70.6</ele></trkpt>
    <trkpt lat="46.7985583" lon="-71.2211607"><ele>71.4</ele></trkpt>
    <trkpt lat="46.7984854" lon="-71.2214291"><ele>72.4</ele></trkpt>
    <trkpt lat="46.7983083" lon="-71.2222281"><ele>75.5</ele></trkpt>
    <trkpt lat="46.7982307" lon="-71.2224938"><ele>76.6</ele></trkpt>
    <trkpt lat="46.7979656" lon="-71.2232690"><ele>79.3</ele></trkpt>
    <trkpt lat="46.7978439" lon="-71.2235909"><ele>80.6</ele></trkpt>
    <trkpt lat="46.7975894" lon="-71.2241949"><ele>81.6</ele></trkpt>
    <trkpt lat="46.7967488" lon="-71.2259969"><ele>83.2</ele></trkpt>
    <trkpt lat="46.7967487" lon="-71.2260174"><ele>83.2</ele></trkpt>
    <trkpt lat="46.7968114" lon="-71.2261117"><ele>83.6</ele></trkpt>
    <trkpt lat="46.7968248" lon="-71.2261137"><ele>83.6</ele></trkpt>
    <trkpt lat="46.7971411" lon="-71.2257654"><ele>84.8</ele></trkpt>
    <trkpt lat="46.7975216" lon="-71.2254661"><ele>86.8</ele></trkpt>
    <trkpt lat="46.7978826" lon="-71.2253013"><ele>89.0</ele></trkpt>
    <trkpt lat="46.7981116" lon="-71.2252291"><ele>90.0</ele></trkpt>
    <trkpt lat="46.7984179" lon="-71.2252165"><ele>90.8</ele></trkpt>
    <trkpt lat="46.7986882" lon="-71.2252233"><ele>91.4</ele></trkpt>
    <trkpt lat="46.7987960" lon="-71.2252372"><ele>91.5</ele></trkpt>
    <trkpt lat="46.7989024" lon="-71.2252646"><ele>91.7</ele></trkpt>
    <trkpt lat="46.7992525" lon="-71.2253900"><ele>91.9</ele></trkpt>
    <trkpt lat="46.7993769" lon="-71.2254203"><ele>92.0</ele></trkpt>
    <trkpt lat="46.7994667" lon="-71.2254103"><ele>92.1</ele></trkpt>
    <trkpt lat="46.7995902" lon="-71.2253733"><ele>92.2</ele></trkpt>
    <trkpt lat="46.7996729" lon="-71.2253210"><ele>92.3</ele></trkpt>
    <trkpt lat="46.7997646" lon="-71.2252375"><ele>92.4</ele></trkpt>
    <trkpt lat="46.7998288" lon="-71.2251454"><ele>92.5</ele></trkpt>
    <trkpt lat="46.7999112" lon="-71.2251836"><ele>92.6</ele></trkpt>
    <trkpt lat="46.8000362" lon="-71.2251927"><ele>92.8</ele></trkpt>
    <trkpt lat="46.8000677" lon="-71.2251691"><ele>92.8</ele></trkpt>
    <trkpt lat="46.8000896" lon="-71.2251273"><ele>92.8</ele></trkpt>
    <trkpt lat="46.8001023" lon="-71.2251294"><ele>92.8</ele></trkpt>
    <trkpt lat="46.8007983" lon="-71.2259632"><ele>93.3</ele></trkpt>
    <trkpt lat="46.8008008" lon="-71.2259816"><ele>93.3</ele></trkpt>
    <trkpt lat="46.8002908" lon="-71.2268660"><ele>92.7</ele></trkpt>
    <trkpt lat="46.8003347" lon="-71.2269387"><ele>92.7</ele></trkpt>
    <trkpt lat="46.8003308" lon="-71.2269582"><ele>92.7</ele></trkpt>
    <trkpt lat="46.7997744" lon="-71.2279228"><ele>91.4</ele></trkpt>
    <trkpt lat="46.7983397" lon="-71.2303841"><ele>89.8</ele></trkpt>
    <trkpt lat="46.7970775" lon="-71.2325764"><ele>88.5</ele></trkpt>
    <trkpt lat="46.7969306" lon="-71.2327281"><ele>88.4</ele></trkpt>
    <trkpt lat="46.7964923" lon="-71.2333889"><ele>87.7</ele></trkpt>
    <trkpt lat="46.7959964" lon="-71.2342562"><ele>86.7</ele></trkpt>
    <trkpt lat="46.7953968" lon="-71.2353390"><ele>85.7</ele></trkpt>
    <trkpt lat="46.7943368" lon="-71.2371959"><ele>83.2</ele></trkpt>
    <trkpt lat="46.7943129" lon="-71.2372259"><ele>83.2</ele></trkpt>
    <trkpt lat="46.7942988" lon="-71.2372096"><ele>83.2</ele></trkpt>
    <trkpt lat="46.7942872" lon="-71.2372219"><ele>83.2</ele></trkpt>
    <trkpt lat="46.7937588" lon="-71.2381521"><ele>82.5</ele></trkpt>
    <trkpt lat="46.7934534" lon="-71.2386698"><ele>81.6</ele></trkpt>
    <trkpt lat="46.7915869" lon="-71.2419734"><ele>73.9</ele></trkpt>
    <trkpt lat="46.7915590" lon="-71.2420027"><ele>73.8</ele></trkpt>
    <trkpt lat="46.7914789" lon="-71.2421693"><ele>73.3</ele></trkpt>
    <trkpt lat="46.7910286" lon="-71.2429541"><ele>72.7</ele></trkpt>
    <trkpt lat="46.7910692" lon="-71.2429996"><ele>72.7</ele></trkpt>
    <trkpt lat="46.7908214" lon="-71.2434502"><ele>72.6</ele></trkpt>
    <trkpt lat="46.7900939" lon="-71.2447195"><ele>71.7</ele></trkpt>
    <trkpt lat="46.7896317" lon="-71.2454908"><ele>72.0</ele></trkpt>
    <trkpt lat="46.7887651" lon="-71.2470352"><ele>74.0</ele></trkpt>
    <trkpt lat="46.7886157" lon="-71.2473311"><ele>74.5</ele></trkpt>
    <trkpt lat="46.7883671" lon="-71.2473934"><ele>75.0</ele></trkpt>
    <trkpt lat="46.7881567" lon="-71.2474666"><ele>75.3</ele></trkpt>
    <trkpt lat="46.7881086" lon="-71.2475019"><ele>75.4</ele></trkpt>
    <trkpt lat="46.7880916" lon="-71.2475020"><ele>75.4</ele></trkpt>
    <trkpt lat="46.7869655" lon="-71.2471371"><ele>75.4</ele></trkpt>
    <trkpt lat="46.7861070" lon="-71.2468349"><ele>75.0</ele></trkpt>
    <trkpt lat="46.7855077" lon="-71.2466480"><ele>75.0</ele></trkpt>
    <trkpt lat="46.7853524" lon="-71.2465799"><ele>74.9</ele></trkpt>
    <trkpt lat="46.7850394" lon="-71.2463779"><ele>74.6</ele></trkpt>
    <trkpt lat="46.7847337" lon="-71.2462200"><ele>74.4</ele></trkpt>
    <trkpt lat="46.7846135" lon="-71.2461642"><ele>74.4</ele></trkpt>
    <trkpt lat="46.7842958" lon="-71.2460683"><ele>74.6</ele></trkpt>
    <trkpt lat="46.7840801" lon="-71.2460451"><ele>74.8</ele></trkpt>
    <trkpt lat="46.7832510" lon="-71.2460614"><ele>75.6</ele></trkpt>
    <trkpt lat="46.7826753" lon="-71.2460103"><ele>75.9</ele></trkpt>
    <trkpt lat="46.7823221" lon="-71.2462705"><ele>76.6</ele></trkpt>
    <trkpt lat="46.7819131" lon="-71.2466035"><ele>77.2</ele></trkpt>
    <trkpt lat="46.7814352" lon="-71.2469115"><ele>77.5</ele></trkpt>
    <trkpt lat="46.7810188" lon="-71.2472242"><ele>77.9</ele></trkpt>
    <trkpt lat="46.7809021" lon="-71.2473474"><ele>78.0</ele></trkpt>
    <trkpt lat="46.7801901" lon="-71.2482350"><ele>78.8</ele></trkpt>
    <trkpt lat="46.7792971" lon="-71.2494956"><ele>78.8</ele></trkpt>
    <trkpt lat="46.7789332" lon="-71.2500779"><ele>78.7</ele></trkpt>
    <trkpt lat="46.7780521" lon="-71.2515358"><ele>77.1</ele></trkpt>
    <trkpt lat="46.7778765" lon="-71.2517997"><ele>77.0</ele></trkpt>
    <trkpt lat="46.7777505" lon="-71.2519484"><ele>77.0</ele></trkpt>
    <trkpt lat="46.7769555" lon="-71.2526202"><ele>76.5</ele></trkpt>
    <trkpt lat="46.7761055" lon="-71.2534128"><ele>76.0</ele></trkpt>
    <trkpt lat="46.7757264" lon="-71.2535812"><ele>75.5</ele></trkpt>
    <trkpt lat="46.7753606" lon="-71.2538035"><ele>74.5</ele></trkpt>
    <trkpt lat="46.7750543" lon="-71.2540804"><ele>73.4</ele></trkpt>
    <trkpt lat="46.7746817" lon="-71.2544489"><ele>71.7</ele></trkpt>
    <trkpt lat="46.7743104" lon="-71.2549467"><ele>70.5</ele></trkpt>
    <trkpt lat="46.7740855" lon="-71.2553897"><ele>69.8</ele></trkpt>
    <trkpt lat="46.7738705" lon="-71.2557077"><ele>68.7</ele></trkpt>
    <trkpt lat="46.7730923" lon="-71.2568008"><ele>65.4</ele></trkpt>
    <trkpt lat="46.7726802" lon="-71.2576621"><ele>64.4</ele></trkpt>
    <trkpt lat="46.7723541" lon="-71.2581521"><ele>63.5</ele></trkpt>
    <trkpt lat="46.7721973" lon="-71.2583691"><ele>63.1</ele></trkpt>
    <trkpt lat="46.7719127" lon="-71.2587321"><ele>62.6</ele></trkpt>
    <trkpt lat="46.7718132" lon="-71.2589185"><ele>62.5</ele></trkpt>
    <trkpt lat="46.7716854" lon="-71.2592654"><ele>62.4</ele></trkpt>
    <trkpt lat="46.7711153" lon="-71.2604462"><ele>62.1</ele></trkpt>
    <trkpt lat="46.7709519" lon="-71.2608236"><ele>61.9</ele></trkpt>
    <trkpt lat="46.7706733" lon="-71.2614046"><ele>60.9</ele></trkpt>
    <trkpt lat="46.7701592" lon="-71.2624179"><ele>60.6</ele></trkpt>
    <trkpt lat="46.7698562" lon="-71.2631323"><ele>60.1</ele></trkpt>
    <trkpt lat="46.7697830" lon="-71.2634287"><ele>60.0</ele></trkpt>
    <trkpt lat="46.7694962" lon="-71.2648925"><ele>61.8</ele></trkpt>
    <trkpt lat="46.7693540" lon="-71.2655702"><ele>62.8</ele></trkpt>
    <trkpt lat="46.7691603" lon="-71.2662770"><ele>64.2</ele></trkpt>
    <trkpt lat="46.7690703" lon="-71.2665043"><ele>64.3</ele></trkpt>
    <trkpt lat="46.7689247" lon="-71.2668044"><ele>64.3</ele></trkpt>
    <trkpt lat="46.7687756" lon="-71.2670676"><ele>64.2</ele></trkpt>
    <trkpt lat="46.7687172" lon="-71.2672002"><ele>64.2</ele></trkpt>
    <trkpt lat="46.7685487" lon="-71.2676937"><ele>64.3</ele></trkpt>
    <trkpt lat="46.7682860" lon="-71.2685576"><ele>64.6</ele></trkpt>
    <trkpt lat="46.7678787" lon="-71.2696690"><ele>65.5</ele></trkpt>
    <trkpt lat="46.7676349" lon="-71.2703124"><ele>65.7</ele></trkpt>
    <trkpt lat="46.7669210" lon="-71.2719839"><ele>65.8</ele></trkpt>
    <trkpt lat="46.7665193" lon="-71.2715494"><ele>62.7</ele></trkpt>
    <trkpt lat="46.7664125" lon="-71.2713722"><ele>61.7</ele></trkpt>
    <trkpt lat="46.7658758" lon="-71.2707526"><ele>58.8</ele></trkpt>
    <trkpt lat="46.7649967" lon="-71.2697058"><ele>57.3</ele></trkpt>
    <trkpt lat="46.7647134" lon="-71.2693812"><ele>57.2</ele></trkpt>
    <trkpt lat="46.7646145" lon="-71.2693179"><ele>57.3</ele></trkpt>
    <trkpt lat="46.7646003" lon="-71.2693220"><ele>57.3</ele></trkpt>
    <trkpt lat="46.7644124" lon="-71.2696407"><ele>57.5</ele></trkpt>
    <trkpt lat="46.7641796" lon="-71.2700753"><ele>57.9</ele></trkpt>
    <trkpt lat="46.7627437" lon="-71.2728377"><ele>57.6</ele></trkpt>
    <trkpt lat="46.7627075" lon="-71.2728955"><ele>57.5</ele></trkpt>
    <trkpt lat="46.7625251" lon="-71.2730647"><ele>57.0</ele></trkpt>
    <trkpt lat="46.7621176" lon="-71.2732752"><ele>56.4</ele></trkpt>
    <trkpt lat="46.7599302" lon="-71.2739445"><ele>46.7</ele></trkpt>
    <trkpt lat="46.7586795" lon="-71.2743397"><ele>39.0</ele></trkpt>
    <trkpt lat="46.7585947" lon="-71.2743832"><ele>38.7</ele></trkpt>
    <trkpt lat="46.7585051" lon="-71.2744714"><ele>38.3</ele></trkpt>
    <trkpt lat="46.7584104" lon="-71.2745926"><ele>37.9</ele></trkpt>
    <trkpt lat="46.7576135" lon="-71.2761173"><ele>37.9</ele></trkpt>
    <trkpt lat="46.7573578" lon="-71.2758356"><ele>38.1</ele></trkpt>
    <trkpt lat="46.7573452" lon="-71.2758365"><ele>38.1</ele></trkpt>
    <trkpt lat="46.7562760" lon="-71.2778176"><ele>38.8</ele></trkpt>
    <trkpt lat="46.7560345" lon="-71.2782072"><ele>38.5</ele></trkpt>
    <trkpt lat="46.7559170" lon="-71.2784397"><ele>38.3</ele></trkpt>
    <trkpt lat="46.7557895" lon="-71.2787568"><ele>38.2</ele></trkpt>
    <trkpt lat="46.7556672" lon="-71.2789839"><ele>38.2</ele></trkpt>
    <trkpt lat="46.7555867" lon="-71.2792188"><ele>38.3</ele></trkpt>
    <trkpt lat="46.7555245" lon="-71.2794369"><ele>38.4</ele></trkpt>
    <trkpt lat="46.7553251" lon="-71.2799658"><ele>39.0</ele></trkpt>
    <trkpt lat="46.7552593" lon="-71.2802101"><ele>39.2</ele></trkpt>
    <trkpt lat="46.7550731" lon="-71.2811970"><ele>39.9</ele></trkpt>
    <trkpt lat="46.7549857" lon="-71.2818406"><ele>40.4</ele></trkpt>
    <trkpt lat="46.7549572" lon="-71.2821792"><ele>41.0</ele></trkpt>
    <trkpt lat="46.7547465" lon="-71.2861040"><ele>46.9</ele></trkpt>
    <trkpt lat="46.7547622" lon="-71.2864704"><ele>46.7</ele></trkpt>
    <trkpt lat="46.7547612" lon="-71.2867854"><ele>46.7</ele></trkpt>
    <trkpt lat="46.7547488" lon="-71.2869945"><ele>46.8</ele></trkpt>
    <trkpt lat="46.7546652" lon="-71.2869074"><ele>46.9</ele></trkpt>
    <trkpt lat="46.7544099" lon="-71.2865749"><ele>47.5</ele></trkpt>
    <trkpt lat="46.7527285" lon="-71.2844713"><ele>47.0</ele></trkpt>
    <trkpt lat="46.7527149" lon="-71.2844541"><ele>46.9</ele></trkpt>
    <trkpt lat="46.7527191" lon="-71.2844339"><ele>46.9</ele></trkpt>
    <trkpt lat="46.7529750" lon="-71.2839261"><ele>44.9</ele></trkpt>
    <trkpt lat="46.7531056" lon="-71.2836428"><ele>44.1</ele></trkpt>
    <trkpt lat="46.7532134" lon="-71.2833399"><ele>43.5</ele></trkpt>
    <trkpt lat="46.7532651" lon="-71.2831439"><ele>43.1</ele></trkpt>
    <trkpt lat="46.7533412" lon="-71.2827392"><ele>41.8</ele></trkpt>
    <trkpt lat="46.7533893" lon="-71.2821661"><ele>39.8</ele></trkpt>
    <trkpt lat="46.7534030" lon="-71.2818519"><ele>39.2</ele></trkpt>
    <trkpt lat="46.7534214" lon="-71.2817514"><ele>39.2</ele></trkpt>
    <trkpt lat="46.7534623" lon="-71.2817020"><ele>39.2</ele></trkpt>
    <trkpt lat="46.7535506" lon="-71.2816813"><ele>39.2</ele></trkpt>
    <trkpt lat="46.7538014" lon="-71.2817226"><ele>39.7</ele></trkpt>
    <trkpt lat="46.7538911" lon="-71.2817237"><ele>39.9</ele></trkpt>
    <trkpt lat="46.7539256" lon="-71.2817087"><ele>39.9</ele></trkpt>
    <trkpt lat="46.7539666" lon="-71.2816247"><ele>40.0</ele></trkpt>
    <trkpt lat="46.7539842" lon="-71.2815502"><ele>40.0</ele></trkpt>
    <trkpt lat="46.7540767" lon="-71.2808545"><ele>38.9</ele></trkpt>
    <trkpt lat="46.7537145" lon="-71.2802024"><ele>33.8</ele></trkpt>
    <trkpt lat="46.7536933" lon="-71.2801299"><ele>33.0</ele></trkpt>
    <trkpt lat="46.7536940" lon="-71.2800265"><ele>32.0</ele></trkpt>
    <trkpt lat="46.7539334" lon="-71.2790365"><ele>30.2</ele></trkpt>
    <trkpt lat="46.7539670" lon="-71.2789437"><ele>30.6</ele></trkpt>
    <trkpt lat="46.7540304" lon="-71.2788957"><ele>31.2</ele></trkpt>
    <trkpt lat="46.7543745" lon="-71.2787394"><ele>34.8</ele></trkpt>
    <trkpt lat="46.7546759" lon="-71.2769298"><ele>33.9</ele></trkpt>
    <trkpt lat="46.7549014" lon="-71.2762432"><ele>33.7</ele></trkpt>
    <trkpt lat="46.7550100" lon="-71.2757982"><ele>33.6</ele></trkpt>
    <trkpt lat="46.7551164" lon="-71.2754650"><ele>34.0</ele></trkpt>
    <trkpt lat="46.7552439" lon="-71.2752107"><ele>34.8</ele></trkpt>
    <trkpt lat="46.7552968" lon="-71.2751393"><ele>35.1</ele></trkpt>
    <trkpt lat="46.7553658" lon="-71.2751091"><ele>35.4</ele></trkpt>
    <trkpt lat="46.7554194" lon="-71.2751000"><ele>35.7</ele></trkpt>
    <trkpt lat="46.7555081" lon="-71.2751215"><ele>36.2</ele></trkpt>
    <trkpt lat="46.7561668" lon="-71.2754788"><ele>37.6</ele></trkpt>
    <trkpt lat="46.7565949" lon="-71.2756839"><ele>36.9</ele></trkpt>
    <trkpt lat="46.7568583" lon="-71.2759585"><ele>36.4</ele></trkpt>
    <trkpt lat="46.7568755" lon="-71.2759637"><ele>36.4</ele></trkpt>
    <trkpt lat="46.7569467" lon="-71.2759558"><ele>36.4</ele></trkpt>
    <trkpt lat="46.7569892" lon="-71.2759085"><ele>36.3</ele></trkpt>
    <trkpt lat="46.7571531" lon="-71.2756037"><ele>35.9</ele></trkpt>
    <trkpt lat="46.7573519" lon="-71.2758239"><ele>35.5</ele></trkpt>
    <trkpt lat="46.7587271" lon="-71.2731591"><ele>28.1</ele></trkpt>
    <trkpt lat="46.7592717" lon="-71.2720163"><ele>24.7</ele></trkpt>
    <trkpt lat="46.7593565" lon="-71.2718150"><ele>24.1</ele></trkpt>
    <trkpt lat="46.7593489" lon="-71.2717996"><ele>24.1</ele></trkpt>
    <trkpt lat="46.7591085" lon="-71.2716193"><ele>22.3</ele></trkpt>
    <trkpt lat="46.7590187" lon="-71.2715316"><ele>21.4</ele></trkpt>
    <trkpt lat="46.7589092" lon="-71.2713952"><ele>20.1</ele></trkpt>
    <trkpt lat="46.7586796" lon="-71.2710256"><ele>16.6</ele></trkpt>
    <trkpt lat="46.7585914" lon="-71.2709344"><ele>15.5</ele></trkpt>
    <trkpt lat="46.7585113" lon="-71.2708747"><ele>14.6</ele></trkpt>
    <trkpt lat="46.7583883" lon="-71.2708341"><ele>13.3</ele></trkpt>
    <trkpt lat="46.7583166" lon="-71.2708242"><ele>12.6</ele></trkpt>
    <trkpt lat="46.7582267" lon="-71.2708311"><ele>11.9</ele></trkpt>
    <trkpt lat="46.7580397" lon="-71.2709241"><ele>10.6</ele></trkpt>
    <trkpt lat="46.7577207" lon="-71.2712207"><ele>9.7</ele></trkpt>
    <trkpt lat="46.7574554" lon="-71.2714439"><ele>10.0</ele></trkpt>
    <trkpt lat="46.7569353" lon="-71.2720517"><ele>10.9</ele></trkpt>
    <trkpt lat="46.7562825" lon="-71.2728769"><ele>9.7</ele></trkpt>
    <trkpt lat="46.7562142" lon="-71.2729077"><ele>9.5</ele></trkpt>
    <trkpt lat="46.7561083" lon="-71.2728791"><ele>9.2</ele></trkpt>
    <trkpt lat="46.7557927" lon="-71.2724889"><ele>7.9</ele></trkpt>
    <trkpt lat="46.7559206" lon="-71.2723475"><ele>7.5</ele></trkpt>
    <trkpt lat="46.7562044" lon="-71.2720684"><ele>7.1</ele></trkpt>
    <trkpt lat="46.7564741" lon="-71.2718566"><ele>7.3</ele></trkpt>
    <trkpt lat="46.7567507" lon="-71.2716646"><ele>7.7</ele></trkpt>
    <trkpt lat="46.7571309" lon="-71.2714240"><ele>8.1</ele></trkpt>
    <trkpt lat="46.7573736" lon="-71.2712506"><ele>8.4</ele></trkpt>
    <trkpt lat="46.7577567" lon="-71.2709050"><ele>8.9</ele></trkpt>
    <trkpt lat="46.7579562" lon="-71.2706801"><ele>9.1</ele></trkpt>
    <trkpt lat="46.7582464" lon="-71.2702868"><ele>9.4</ele></trkpt>
    <trkpt lat="46.7584043" lon="-71.2700346"><ele>9.4</ele></trkpt>
    <trkpt lat="46.7585944" lon="-71.2696848"><ele>9.2</ele></trkpt>
    <trkpt lat="46.7587511" lon="-71.2693325"><ele>9.1</ele></trkpt>
    <trkpt lat="46.7592556" lon="-71.2679694"><ele>8.6</ele></trkpt>
    <trkpt lat="46.7594720" lon="-71.2674857"><ele>8.4</ele></trkpt>
    <trkpt lat="46.7596437" lon="-71.2671818"><ele>8.0</ele></trkpt>
    <trkpt lat="46.7598108" lon="-71.2669427"><ele>7.6</ele></trkpt>
    <trkpt lat="46.7600213" lon="-71.2666956"><ele>7.3</ele></trkpt>
    <trkpt lat="46.7618929" lon="-71.2646427"><ele>6.7</ele></trkpt>
    <trkpt lat="46.7619529" lon="-71.2645997"><ele>6.8</ele></trkpt>
    <trkpt lat="46.7620568" lon="-71.2648141"><ele>7.1</ele></trkpt>
    <trkpt lat="46.7621658" lon="-71.2649890"><ele>7.3</ele></trkpt>
    <trkpt lat="46.7621786" lon="-71.2649937"><ele>7.3</ele></trkpt>
    <trkpt lat="46.7622656" lon="-71.2649009"><ele>7.4</ele></trkpt>
    <trkpt lat="46.7623305" lon="-71.2648554"><ele>7.5</ele></trkpt>
    <trkpt lat="46.7624334" lon="-71.2648069"><ele>7.6</ele></trkpt>
    <trkpt lat="46.7627184" lon="-71.2647432"><ele>7.8</ele></trkpt>
    <trkpt lat="46.7630407" lon="-71.2646893"><ele>8.1</ele></trkpt>
    <trkpt lat="46.7631827" lon="-71.2646530"><ele>8.2</ele></trkpt>
    <trkpt lat="46.7632872" lon="-71.2646123"><ele>8.3</ele></trkpt>
    <trkpt lat="46.7639915" lon="-71.2642082"><ele>8.7</ele></trkpt>
    <trkpt lat="46.7641699" lon="-71.2640822"><ele>8.7</ele></trkpt>
    <trkpt lat="46.7643024" lon="-71.2639047"><ele>8.7</ele></trkpt>
    <trkpt lat="46.7645997" lon="-71.2633773"><ele>8.7</ele></trkpt>
    <trkpt lat="46.7646920" lon="-71.2631832"><ele>8.8</ele></trkpt>
    <trkpt lat="46.7647472" lon="-71.2630180"><ele>8.8</ele></trkpt>
    <trkpt lat="46.7648036" lon="-71.2627416"><ele>8.7</ele></trkpt>
    <trkpt lat="46.7648815" lon="-71.2625050"><ele>8.6</ele></trkpt>
    <trkpt lat="46.7649498" lon="-71.2623509"><ele>8.6</ele></trkpt>
    <trkpt lat="46.7650290" lon="-71.2622441"><ele>8.7</ele></trkpt>
    <trkpt lat="46.7650439" lon="-71.2622311"><ele>8.7</ele></trkpt>
    <trkpt lat="46.7651158" lon="-71.2622241"><ele>8.8</ele></trkpt>
    <trkpt lat="46.7651691" lon="-71.2622373"><ele>8.9</ele></trkpt>
    <trkpt lat="46.7654194" lon="-71.2623858"><ele>9.5</ele></trkpt>
    <trkpt lat="46.7655091" lon="-71.2623845"><ele>9.7</ele></trkpt>
    <trkpt lat="46.7656488" lon="-71.2623338"><ele>9.9</ele></trkpt>
    <trkpt lat="46.7666663" lon="-71.2616609"><ele>13.2</ele></trkpt>
    <trkpt lat="46.7667548" lon="-71.2616390"><ele>13.5</ele></trkpt>
    <trkpt lat="46.7668802" lon="-71.2616599"><ele>13.8</ele></trkpt>
    <trkpt lat="46.7670598" lon="-71.2612365"><ele>13.7</ele></trkpt>
    <trkpt lat="46.7670985" lon="-71.2610342"><ele>13.2</ele></trkpt>
    <trkpt lat="46.7671217" lon="-71.2608537"><ele>12.6</ele></trkpt>
    <trkpt lat="46.7671286" lon="-71.2605914"><ele>11.7</ele></trkpt>
    <trkpt lat="46.7670173" lon="-71.2593951"><ele>9.2</ele></trkpt>
    <trkpt lat="46.7668915" lon="-71.2590179"><ele>8.3</ele></trkpt>
    <trkpt lat="46.7668243" lon="-71.2588951"><ele>8.2</ele></trkpt>
    <trkpt lat="46.7673128" lon="-71.2582362"><ele>8.2</ele></trkpt>
    <trkpt lat="46.7675391" lon="-71.2580744"><ele>8.6</ele></trkpt>
    <trkpt lat="46.7675559" lon="-71.2580689"><ele>8.6</ele></trkpt>
    <trkpt lat="46.7679673" lon="-71.2581431"><ele>10.4</ele></trkpt>
    <trkpt lat="46.7681624" lon="-71.2581951"><ele>10.3</ele></trkpt>
    <trkpt lat="46.7683606" lon="-71.2580730"><ele>9.8</ele></trkpt>
    <trkpt lat="46.7684960" lon="-71.2579001"><ele>9.5</ele></trkpt>
    <trkpt lat="46.7686117" lon="-71.2576988"><ele>9.1</ele></trkpt>
    <trkpt lat="46.7687194" lon="-71.2574564"><ele>8.8</ele></trkpt>
    <trkpt lat="46.7690990" lon="-71.2563245"><ele>9.4</ele></trkpt>
    <trkpt lat="46.7691975" lon="-71.2561053"><ele>9.5</ele></trkpt>
    <trkpt lat="46.7693226" lon="-71.2559551"><ele>9.5</ele></trkpt>
    <trkpt lat="46.7698712" lon="-71.2554503"><ele>9.6</ele></trkpt>
    <trkpt lat="46.7705798" lon="-71.2548757"><ele>10.2</ele></trkpt>
    <trkpt lat="46.7712754" lon="-71.2541716"><ele>10.3</ele></trkpt>
    <trkpt lat="46.7713901" lon="-71.2539699"><ele>10.2</ele></trkpt>
    <trkpt lat="46.7713994" lon="-71.2539481"><ele>10.2</ele></trkpt>
    <trkpt lat="46.7714363" lon="-71.2536912"><ele>10.0</ele></trkpt>
    <trkpt lat="46.7714318" lon="-71.2534814"><ele>9.8</ele></trkpt>
    <trkpt lat="46.7713939" lon="-71.2532791"><ele>9.5</ele></trkpt>
    <trkpt lat="46.7712875" lon="-71.2530676"><ele>9.2</ele></trkpt>
    <trkpt lat="46.7710815" lon="-71.2527737"><ele>8.8</ele></trkpt>
    <trkpt lat="46.7710490" lon="-71.2525969"><ele>8.6</ele></trkpt>
    <trkpt lat="46.7710576" lon="-71.2524663"><ele>8.5</ele></trkpt>
    <trkpt lat="46.7711564" lon="-71.2520441"><ele>8.2</ele></trkpt>
    <trkpt lat="46.7715796" lon="-71.2507388"><ele>8.0</ele></trkpt>
    <trkpt lat="46.7721163" lon="-71.2493118"><ele>7.9</ele></trkpt>
    <trkpt lat="46.7721942" lon="-71.2488803"><ele>7.6</ele></trkpt>
    <trkpt lat="46.7720752" lon="-71.2488838"><ele>7.5</ele></trkpt>
    <trkpt lat="46.7718617" lon="-71.2488345"><ele>7.2</ele></trkpt>
    <trkpt lat="46.7711635" lon="-71.2485728"><ele>6.3</ele></trkpt>
    <trkpt lat="46.7711862" lon="-71.2484475"><ele>6.2</ele></trkpt>
    <trkpt lat="46.7710996" lon="-71.2484138"><ele>6.1</ele></trkpt>
    <trkpt lat="46.7713234" lon="-71.2471712"><ele>5.8</ele></trkpt>
    <trkpt lat="46.7714647" lon="-71.2465206"><ele>5.9</ele></trkpt>
    <trkpt lat="46.7715858" lon="-71.2460263"><ele>6.0</ele></trkpt>
    <trkpt lat="46.7717557" lon="-71.2454471"><ele>6.4</ele></trkpt>
    <trkpt lat="46.7719621" lon="-71.2448640"><ele>7.1</ele></trkpt>
    <trkpt lat="46.7722376" lon="-71.2442174"><ele>9.4</ele></trkpt>
    <trkpt lat="46.7725390" lon="-71.2435956"><ele>11.2</ele></trkpt>
    <trkpt lat="46.7727555" lon="-71.2432440"><ele>12.1</ele></trkpt>
    <trkpt lat="46.7729499" lon="-71.2430100"><ele>12.8</ele></trkpt>
    <trkpt lat="46.7731492" lon="-71.2428307"><ele>13.4</ele></trkpt>
    <trkpt lat="46.7733429" lon="-71.2426907"><ele>13.7</ele></trkpt>
    <trkpt lat="46.7734446" lon="-71.2426374"><ele>13.7</ele></trkpt>
    <trkpt lat="46.7737248" lon="-71.2425382"><ele>13.5</ele></trkpt>
    <trkpt lat="46.7738851" lon="-71.2425023"><ele>12.9</ele></trkpt>
    <trkpt lat="46.7740830" lon="-71.2424891"><ele>12.0</ele></trkpt>
    <trkpt lat="46.7742805" lon="-71.2425097"><ele>11.1</ele></trkpt>
    <trkpt lat="46.7744744" lon="-71.2425689"><ele>10.7</ele></trkpt>
    <trkpt lat="46.7750016" lon="-71.2428381"><ele>11.1</ele></trkpt>
    <trkpt lat="46.7759451" lon="-71.2433606"><ele>10.3</ele></trkpt>
    <trkpt lat="46.7763255" lon="-71.2435231"><ele>10.2</ele></trkpt>
    <trkpt lat="46.7765027" lon="-71.2435715"><ele>10.3</ele></trkpt>
    <trkpt lat="46.7768981" lon="-71.2436130"><ele>10.5</ele></trkpt>
    <trkpt lat="46.7773486" lon="-71.2436133"><ele>11.1</ele></trkpt>
    <trkpt lat="46.7775101" lon="-71.2435915"><ele>11.3</ele></trkpt>
    <trkpt lat="46.7777048" lon="-71.2435374"><ele>11.4</ele></trkpt>
    <trkpt lat="46.7778618" lon="-71.2434779"><ele>11.3</ele></trkpt>
    <trkpt lat="46.7780491" lon="-71.2433831"><ele>11.2</ele></trkpt>
    <trkpt lat="46.7782294" lon="-71.2432630"><ele>10.9</ele></trkpt>
    <trkpt lat="46.7784156" lon="-71.2431028"><ele>10.6</ele></trkpt>
    <trkpt lat="46.7785925" lon="-71.2429217"><ele>10.3</ele></trkpt>
    <trkpt lat="46.7786905" lon="-71.2428059"><ele>10.2</ele></trkpt>
    <trkpt lat="46.7787962" lon="-71.2426632"><ele>10.1</ele></trkpt>
    <trkpt lat="46.7791380" lon="-71.2420875"><ele>9.9</ele></trkpt>
    <trkpt lat="46.7792760" lon="-71.2418802"><ele>9.8</ele></trkpt>
    <trkpt lat="46.7794373" lon="-71.2416705"><ele>9.6</ele></trkpt>
    <trkpt lat="46.7796075" lon="-71.2414761"><ele>9.4</ele></trkpt>
    <trkpt lat="46.7799173" lon="-71.2411595"><ele>9.1</ele></trkpt>
    <trkpt lat="46.7800869" lon="-71.2410100"><ele>8.9</ele></trkpt>
    <trkpt lat="46.7803700" lon="-71.2407791"><ele>8.5</ele></trkpt>
    <trkpt lat="46.7806959" lon="-71.2405548"><ele>8.0</ele></trkpt>
    <trkpt lat="46.7809306" lon="-71.2404200"><ele>7.8</ele></trkpt>
    <trkpt lat="46.7813226" lon="-71.2402234"><ele>7.6</ele></trkpt>
    <trkpt lat="46.7819813" lon="-71.2399505"><ele>8.0</ele></trkpt>
    <trkpt lat="46.7825802" lon="-71.2397611"><ele>8.3</ele></trkpt>
    <trkpt lat="46.7840545" lon="-71.2393906"><ele>8.5</ele></trkpt>
    <trkpt lat="46.7842626" lon="-71.2393046"><ele>8.6</ele></trkpt>
    <trkpt lat="46.7844660" lon="-71.2391975"><ele>8.6</ele></trkpt>
    <trkpt lat="46.7846467" lon="-71.2390787"><ele>8.8</ele></trkpt>
    <trkpt lat="46.7848224" lon="-71.2389449"><ele>9.0</ele></trkpt>
    <trkpt lat="46.7849796" lon="-71.2388167"><ele>9.1</ele></trkpt>
    <trkpt lat="46.7851927" lon="-71.2385745"><ele>9.3</ele></trkpt>
    <trkpt lat="46.7852877" lon="-71.2384536"><ele>9.4</ele></trkpt>
    <trkpt lat="46.7855230" lon="-71.2380914"><ele>9.6</ele></trkpt>
    <trkpt lat="46.7856259" lon="-71.2379087"><ele>9.7</ele></trkpt>
    <trkpt lat="46.7857383" lon="-71.2376709"><ele>9.8</ele></trkpt>
    <trkpt lat="46.7861895" lon="-71.2365961"><ele>9.7</ele></trkpt>
    <trkpt lat="46.7862741" lon="-71.2364261"><ele>9.6</ele></trkpt>
    <trkpt lat="46.7863717" lon="-71.2362716"><ele>9.5</ele></trkpt>
    <trkpt lat="46.7864773" lon="-71.2361286"><ele>9.3</ele></trkpt>
    <trkpt lat="46.7865907" lon="-71.2359991"><ele>9.2</ele></trkpt>
    <trkpt lat="46.7867692" lon="-71.2358212"><ele>8.9</ele></trkpt>
    <trkpt lat="46.7871611" lon="-71.2354976"><ele>8.5</ele></trkpt>
    <trkpt lat="46.7875747" lon="-71.2352373"><ele>8.4</ele></trkpt>
    <trkpt lat="46.7878141" lon="-71.2351211"><ele>8.6</ele></trkpt>
    <trkpt lat="46.7881109" lon="-71.2350100"><ele>8.9</ele></trkpt>
    <trkpt lat="46.7890474" lon="-71.2347347"><ele>9.0</ele></trkpt>
    <trkpt lat="46.7893403" lon="-71.2346049"><ele>9.2</ele></trkpt>
    <trkpt lat="46.7894906" lon="-71.2345161"><ele>9.2</ele></trkpt>
    <trkpt lat="46.7897423" lon="-71.2343113"><ele>9.3</ele></trkpt>
    <trkpt lat="46.7898798" lon="-71.2341861"><ele>9.4</ele></trkpt>
    <trkpt lat="46.7901298" lon="-71.2339281"><ele>9.5</ele></trkpt>
    <trkpt lat="46.7902943" lon="-71.2337237"><ele>9.5</ele></trkpt>
    <trkpt lat="46.7904072" lon="-71.2335541"><ele>9.6</ele></trkpt>
    <trkpt lat="46.7905333" lon="-71.2333314"><ele>9.6</ele></trkpt>
    <trkpt lat="46.7906774" lon="-71.2330298"><ele>9.7</ele></trkpt>
    <trkpt lat="46.7913349" lon="-71.2314926"><ele>10.2</ele></trkpt>
    <trkpt lat="46.7914272" lon="-71.2312984"><ele>10.2</ele></trkpt>
    <trkpt lat="46.7915522" lon="-71.2310744"><ele>10.3</ele></trkpt>
    <trkpt lat="46.7918056" lon="-71.2307013"><ele>10.4</ele></trkpt>
    <trkpt lat="46.7920690" lon="-71.2303828"><ele>10.5</ele></trkpt>
    <trkpt lat="46.7923218" lon="-71.2301307"><ele>10.6</ele></trkpt>
    <trkpt lat="46.7925359" lon="-71.2299361"><ele>10.7</ele></trkpt>
    <trkpt lat="46.7927946" lon="-71.2296512"><ele>10.6</ele></trkpt>
    <trkpt lat="46.7930055" lon="-71.2293650"><ele>10.4</ele></trkpt>
    <trkpt lat="46.7931257" lon="-71.2291694"><ele>10.4</ele></trkpt>
    <trkpt lat="46.7932490" lon="-71.2289434"><ele>10.6</ele></trkpt>
    <trkpt lat="46.7934226" lon="-71.2285446"><ele>10.8</ele></trkpt>
    <trkpt lat="46.7934873" lon="-71.2283570"><ele>10.9</ele></trkpt>
    <trkpt lat="46.7936128" lon="-71.2278095"><ele>10.5</ele></trkpt>
    <trkpt lat="46.7937889" lon="-71.2272631"><ele>10.0</ele></trkpt>
    <trkpt lat="46.7939886" lon="-71.2267343"><ele>9.6</ele></trkpt>
    <trkpt lat="46.7940952" lon="-71.2264908"><ele>9.5</ele></trkpt>
    <trkpt lat="46.7942116" lon="-71.2262571"><ele>9.5</ele></trkpt>
    <trkpt lat="46.7943156" lon="-71.2260758"><ele>9.5</ele></trkpt>
    <trkpt lat="46.7947051" lon="-71.2254564"><ele>9.5</ele></trkpt>
    <trkpt lat="46.7947850" lon="-71.2253142"><ele>9.4</ele></trkpt>
    <trkpt lat="46.7948471" lon="-71.2251854"><ele>9.4</ele></trkpt>
    <trkpt lat="46.7951224" lon="-71.2245077"><ele>9.2</ele></trkpt>
    <trkpt lat="46.7952144" lon="-71.2243131"><ele>9.2</ele></trkpt>
    <trkpt lat="46.7958102" lon="-71.2231927"><ele>9.3</ele></trkpt>
    <trkpt lat="46.7959797" lon="-71.2229576"><ele>9.2</ele></trkpt>
    <trkpt lat="46.7964312" lon="-71.2224787"><ele>9.0</ele></trkpt>
    <trkpt lat="46.7965647" lon="-71.2223022"><ele>9.0</ele></trkpt>
    <trkpt lat="46.7968683" lon="-71.2218176"><ele>9.2</ele></trkpt>
    <trkpt lat="46.7970375" lon="-71.2215106"><ele>9.3</ele></trkpt>
    <trkpt lat="46.7972260" lon="-71.2211260"><ele>9.4</ele></trkpt>
    <trkpt lat="46.7974961" lon="-71.2205366"><ele>9.9</ele></trkpt>
    <trkpt lat="46.7980260" lon="-71.2193478"><ele>9.1</ele></trkpt>
    <trkpt lat="46.7980764" lon="-71.2192085"><ele>8.9</ele></trkpt>
    <trkpt lat="46.7981345" lon="-71.2189882"><ele>8.6</ele></trkpt>
    <trkpt lat="46.7981743" lon="-71.2187058"><ele>8.5</ele></trkpt>
    <trkpt lat="46.7983358" lon="-71.2187233"><ele>8.6</ele></trkpt>
    <trkpt lat="46.7984045" lon="-71.2186941"><ele>8.7</ele></trkpt>
    <trkpt lat="46.7984472" lon="-71.2186467"><ele>8.7</ele></trkpt>
    <trkpt lat="46.7984744" lon="-71.2185788"><ele>8.7</ele></trkpt>
    <trkpt lat="46.7986670" lon="-71.2178996"><ele>8.6</ele></trkpt>
    <trkpt lat="46.7987380" lon="-71.2177484"><ele>8.5</ele></trkpt>
    <trkpt lat="46.7990900" lon="-71.2171857"><ele>8.2</ele></trkpt>
    <trkpt lat="46.7994838" lon="-71.2165021"><ele>8.0</ele></trkpt>
    <trkpt lat="46.7996983" lon="-71.2162632"><ele>8.2</ele></trkpt>
    <trkpt lat="46.7997898" lon="-71.2161368"><ele>8.3</ele></trkpt>
    <trkpt lat="46.8002056" lon="-71.2152794"><ele>9.0</ele></trkpt>
    <trkpt lat="46.8002836" lon="-71.2151351"><ele>9.0</ele></trkpt>
    <trkpt lat="46.8004468" lon="-71.2148904"><ele>8.9</ele></trkpt>
    <trkpt lat="46.8006268" lon="-71.2146722"><ele>8.8</ele></trkpt>
    <trkpt lat="46.8011787" lon="-71.2138068"><ele>8.7</ele></trkpt>
    <trkpt lat="46.8017156" lon="-71.2130297"><ele>9.5</ele></trkpt>
    <trkpt lat="46.8018140" lon="-71.2128420"><ele>9.5</ele></trkpt>
    <trkpt lat="46.8020393" lon="-71.2123354"><ele>9.2</ele></trkpt>
    <trkpt lat="46.8021198" lon="-71.2121007"><ele>9.3</ele></trkpt>
    <trkpt lat="46.8021539" lon="-71.2119513"><ele>9.6</ele></trkpt>
    <trkpt lat="46.8021782" lon="-71.2116653"><ele>10.2</ele></trkpt>
    <trkpt lat="46.8021680" lon="-71.2115349"><ele>10.6</ele></trkpt>
    <trkpt lat="46.8020937" lon="-71.2111021"><ele>11.8</ele></trkpt>
    <trkpt lat="46.8020814" lon="-71.2109723"><ele>11.9</ele></trkpt>
    <trkpt lat="46.8021024" lon="-71.2107651"><ele>12.0</ele></trkpt>
    <trkpt lat="46.8021714" lon="-71.2103574"><ele>11.5</ele></trkpt>
    <trkpt lat="46.8023077" lon="-71.2099001"><ele>10.7</ele></trkpt>
    <trkpt lat="46.8023679" lon="-71.2097387"><ele>10.4</ele></trkpt>
    <trkpt lat="46.8027036" lon="-71.2090239"><ele>9.4</ele></trkpt>
    <trkpt lat="46.8030330" lon="-71.2085385"><ele>9.9</ele></trkpt>
    <trkpt lat="46.8035670" lon="-71.2077204"><ele>11.7</ele></trkpt>
    <trkpt lat="46.8039326" lon="-71.2072141"><ele>11.6</ele></trkpt>
    <trkpt lat="46.8042446" lon="-71.2068166"><ele>10.8</ele></trkpt>
    <trkpt lat="46.8045112" lon="-71.2065035"><ele>10.6</ele></trkpt>
    <trkpt lat="46.8052609" lon="-71.2056846"><ele>11.0</ele></trkpt>
    <trkpt lat="46.8052890" lon="-71.2056193"><ele>10.9</ele></trkpt>
    <trkpt lat="46.8052942" lon="-71.2055674"><ele>10.9</ele></trkpt>
    <trkpt lat="46.8053652" lon="-71.2055688"><ele>10.8</ele></trkpt>
    <trkpt lat="46.8054180" lon="-71.2055540"><ele>10.7</ele></trkpt>
    <trkpt lat="46.8055520" lon="-71.2054217"><ele>10.2</ele></trkpt>
    <trkpt lat="46.8056333" lon="-71.2052823"><ele>9.8</ele></trkpt>
    <trkpt lat="46.8056529" lon="-71.2052094"><ele>9.6</ele></trkpt>
    <trkpt lat="46.8056639" lon="-71.2051074"><ele>9.4</ele></trkpt>
    <trkpt lat="46.8066468" lon="-71.2044504"><ele>10.9</ele></trkpt>
    <trkpt lat="46.8070820" lon="-71.2041972"><ele>11.4</ele></trkpt>
    <trkpt lat="46.8075730" lon="-71.2039359"><ele>11.8</ele></trkpt>
    <trkpt lat="46.8080713" lon="-71.2037062"><ele>12.9</ele></trkpt>
    <trkpt lat="46.8086269" lon="-71.2034806"><ele>12.8</ele></trkpt>
    <trkpt lat="46.8088894" lon="-71.2033864"><ele>12.8</ele></trkpt>
    <trkpt lat="46.8092104" lon="-71.2033184"><ele>13.0</ele></trkpt>
    <trkpt lat="46.8093898" lon="-71.2032928"><ele>13.2</ele></trkpt>
    <trkpt lat="46.8103992" lon="-71.2032980"><ele>11.4</ele></trkpt>
    <trkpt lat="46.8107046" lon="-71.2032619"><ele>10.2</ele></trkpt>
    <trkpt lat="46.8110973" lon="-71.2031816"><ele>8.9</ele></trkpt>
    <trkpt lat="46.8113851" lon="-71.2031557"><ele>8.4</ele></trkpt>
    <trkpt lat="46.8116730" lon="-71.2031757"><ele>8.4</ele></trkpt>
    <trkpt lat="46.8117902" lon="-71.2032440"><ele>8.5</ele></trkpt>
    <trkpt lat="46.8120234" lon="-71.2032585"><ele>8.6</ele></trkpt>
    <trkpt lat="46.8120751" lon="-71.2032357"><ele>8.5</ele></trkpt>
    <trkpt lat="46.8121196" lon="-71.2031909"><ele>8.5</ele></trkpt>
    <trkpt lat="46.8121682" lon="-71.2030508"><ele>8.4</ele></trkpt>
    <trkpt lat="46.8122000" lon="-71.2028480"><ele>8.2</ele></trkpt>
    <trkpt lat="46.8122537" lon="-71.2028572"><ele>8.1</ele></trkpt>
    <trkpt lat="46.8122614" lon="-71.2028390"><ele>8.1</ele></trkpt>
    <trkpt lat="46.8124164" lon="-71.2018946"><ele>6.4</ele></trkpt>
    <trkpt lat="46.8124524" lon="-71.2017743"><ele>6.1</ele></trkpt>
    <trkpt lat="46.8125197" lon="-71.2016879"><ele>6.0</ele></trkpt>
    <trkpt lat="46.8128054" lon="-71.2016368"><ele>5.7</ele></trkpt>
    <trkpt lat="46.8128894" lon="-71.2015017"><ele>5.7</ele></trkpt>
    <trkpt lat="46.8135356" lon="-71.2014157"><ele>5.9</ele></trkpt>
    <trkpt lat="46.8138209" lon="-71.2014755"><ele>6.1</ele></trkpt>
    <trkpt lat="46.8141225" lon="-71.2015544"><ele>6.5</ele></trkpt>
    <trkpt lat="46.8141308" lon="-71.2015688"><ele>6.5</ele></trkpt>
    <trkpt lat="46.8140635" lon="-71.2021378"><ele>7.7</ele></trkpt>
    <trkpt lat="46.8139788" lon="-71.2026935"><ele>9.2</ele></trkpt>
    <trkpt lat="46.8144851" lon="-71.2028832"><ele>9.2</ele></trkpt>
    <trkpt lat="46.8162670" lon="-71.2034261"><ele>7.9</ele></trkpt>
    <trkpt lat="46.8162832" lon="-71.2036867"><ele>8.1</ele></trkpt>
    <trkpt lat="46.8164413" lon="-71.2051098"><ele>8.1</ele></trkpt>
    <trkpt lat="46.8169200" lon="-71.2049821"><ele>6.8</ele></trkpt>
    <trkpt lat="46.8169331" lon="-71.2049869"><ele>6.8</ele></trkpt>
    <trkpt lat="46.8173937" lon="-71.2088395"><ele>7.0</ele></trkpt>
    <trkpt lat="46.8174249" lon="-71.2089625"><ele>7.1</ele></trkpt>
    <trkpt lat="46.8174343" lon="-71.2090400"><ele>7.1</ele></trkpt>
    <trkpt lat="46.8174305" lon="-71.2091706"><ele>7.1</ele></trkpt>
    <trkpt lat="46.8173745" lon="-71.2094748"><ele>7.0</ele></trkpt>
    <trkpt lat="46.8173786" lon="-71.2094947"><ele>7.0</ele></trkpt>
    <trkpt lat="46.8174879" lon="-71.2095863"><ele>6.9</ele></trkpt>
    <trkpt lat="46.8175549" lon="-71.2096733"><ele>6.8</ele></trkpt>
    <trkpt lat="46.8175970" lon="-71.2097585"><ele>6.7</ele></trkpt>
    <trkpt lat="46.8176459" lon="-71.2098987"><ele>6.6</ele></trkpt>
    <trkpt lat="46.8176615" lon="-71.2099739"><ele>6.5</ele></trkpt>
    <trkpt lat="46.8176815" lon="-71.2102347"><ele>6.4</ele></trkpt>
    <trkpt lat="46.8177324" lon="-71.2104863"><ele>6.4</ele></trkpt>
    <trkpt lat="46.8179414" lon="-71.2114636"><ele>6.4</ele></trkpt>
    <trkpt lat="46.8181938" lon="-71.2125028"><ele>6.3</ele></trkpt>
    <trkpt lat="46.8184253" lon="-71.2135523"><ele>6.3</ele></trkpt>
    <trkpt lat="46.8185131" lon="-71.2138685"><ele>6.3</ele></trkpt>
    <trkpt lat="46.8186064" lon="-71.2141527"><ele>6.3</ele></trkpt>
    <trkpt lat="46.8187180" lon="-71.2144525"><ele>6.3</ele></trkpt>
    <trkpt lat="46.8188765" lon="-71.2147383"><ele>6.3</ele></trkpt>
    <trkpt lat="46.8190221" lon="-71.2149343"><ele>6.3</ele></trkpt>
    <trkpt lat="46.8192041" lon="-71.2151038"><ele>6.3</ele></trkpt>
    <trkpt lat="46.8193724" lon="-71.2151968"><ele>6.3</ele></trkpt>
    <trkpt lat="46.8196329" lon="-71.2153026"><ele>6.2</ele></trkpt>
    <trkpt lat="46.8204424" lon="-71.2155638"><ele>6.2</ele></trkpt>
    <trkpt lat="46.8205986" lon="-71.2156277"><ele>6.2</ele></trkpt>
    <trkpt lat="46.8206474" lon="-71.2156614"><ele>6.2</ele></trkpt>
    <trkpt lat="46.8207048" lon="-71.2157248"><ele>6.2</ele></trkpt>
    <trkpt lat="46.8207945" lon="-71.2158523"><ele>6.2</ele></trkpt>
    <trkpt lat="46.8208898" lon="-71.2159267"><ele>6.2</ele></trkpt>
    <trkpt lat="46.8221080" lon="-71.2170440"><ele>6.1</ele></trkpt>
    <trkpt lat="46.8220543" lon="-71.2171494"><ele>6.1</ele></trkpt>
    <trkpt lat="46.8218721" lon="-71.2176324"><ele>5.9</ele></trkpt>
    <trkpt lat="46.8218133" lon="-71.2177644"><ele>5.8</ele></trkpt>
    <trkpt lat="46.8215925" lon="-71.2180736"><ele>5.7</ele></trkpt>
    <trkpt lat="46.8215383" lon="-71.2181782"><ele>5.7</ele></trkpt>
    <trkpt lat="46.8215027" lon="-71.2182987"><ele>5.7</ele></trkpt>
    <trkpt lat="46.8214756" lon="-71.2186365"><ele>5.7</ele></trkpt>
    <trkpt lat="46.8214362" lon="-71.2188110"><ele>5.8</ele></trkpt>
    <trkpt lat="46.8213515" lon="-71.2189461"><ele>5.8</ele></trkpt>
    <trkpt lat="46.8212864" lon="-71.2191034"><ele>5.9</ele></trkpt>
    <trkpt lat="46.8212071" lon="-71.2193389"><ele>5.8</ele></trkpt>
    <trkpt lat="46.8210936" lon="-71.2195428"><ele>5.7</ele></trkpt>
    <trkpt lat="46.8210070" lon="-71.2196764"><ele>5.6</ele></trkpt>
    <trkpt lat="46.8209430" lon="-71.2198032"><ele>5.5</ele></trkpt>
    <trkpt lat="46.8208807" lon="-71.2199924"><ele>5.4</ele></trkpt>
    <trkpt lat="46.8205120" lon="-71.2209551"><ele>4.8</ele></trkpt>
    <trkpt lat="46.8203705" lon="-71.2214661"><ele>4.7</ele></trkpt>
    <trkpt lat="46.8202856" lon="-71.2215547"><ele>4.7</ele></trkpt>
    <trkpt lat="46.8201991" lon="-71.2217849"><ele>4.8</ele></trkpt>
    <trkpt lat="46.8201371" lon="-71.2220032"><ele>4.8</ele></trkpt>
    <trkpt lat="46.8201132" lon="-71.2221834"><ele>4.8</ele></trkpt>
    <trkpt lat="46.8200260" lon="-71.2223823"><ele>4.8</ele></trkpt>
    <trkpt lat="46.8199412" lon="-71.2226433"><ele>4.8</ele></trkpt>
    <trkpt lat="46.8198598" lon="-71.2229065"><ele>4.7</ele></trkpt>
    <trkpt lat="46.8197171" lon="-71.2234731"><ele>4.5</ele></trkpt>
    <trkpt lat="46.8196669" lon="-71.2236121"><ele>4.5</ele></trkpt>
    <trkpt lat="46.8195836" lon="-71.2240686"><ele>4.6</ele></trkpt>
    <trkpt lat="46.8195799" lon="-71.2243310"><ele>4.8</ele></trkpt>
    <trkpt lat="46.8195942" lon="-71.2244870"><ele>5.0</ele></trkpt>
    <trkpt lat="46.8196734" lon="-71.2249180"><ele>5.5</ele></trkpt>
    <trkpt lat="46.8197066" lon="-71.2251492"><ele>5.7</ele></trkpt>
    <trkpt lat="46.8197687" lon="-71.2257460"><ele>5.9</ele></trkpt>
    <trkpt lat="46.8198080" lon="-71.2260290"><ele>5.9</ele></trkpt>
    <trkpt lat="46.8199472" lon="-71.2267078"><ele>5.9</ele></trkpt>
    <trkpt lat="46.8199763" lon="-71.2269933"><ele>5.9</ele></trkpt>
    <trkpt lat="46.8200475" lon="-71.2272905"><ele>5.9</ele></trkpt>
    <trkpt lat="46.8201098" lon="-71.2274502"><ele>6.0</ele></trkpt>
    <trkpt lat="46.8201628" lon="-71.2275562"><ele>6.0</ele></trkpt>
    <trkpt lat="46.8203794" lon="-71.2278331"><ele>6.1</ele></trkpt>
    <trkpt lat="46.8206449" lon="-71.2282965"><ele>6.1</ele></trkpt>
    <trkpt lat="46.8206688" lon="-71.2283949"><ele>6.0</ele></trkpt>
    <trkpt lat="46.8207132" lon="-71.2288629"><ele>5.2</ele></trkpt>
    <trkpt lat="46.8207413" lon="-71.2289876"><ele>5.2</ele></trkpt>
    <trkpt lat="46.8207969" lon="-71.2290907"><ele>5.1</ele></trkpt>
    <trkpt lat="46.8210615" lon="-71.2294468"><ele>5.4</ele></trkpt>
    <trkpt lat="46.8211083" lon="-71.2294845"><ele>5.5</ele></trkpt>
    <trkpt lat="46.8212666" lon="-71.2295358"><ele>5.5</ele></trkpt>
    <trkpt lat="46.8213697" lon="-71.2295834"><ele>5.6</ele></trkpt>
    <trkpt lat="46.8214473" lon="-71.2296503"><ele>5.6</ele></trkpt>
    <trkpt lat="46.8215449" lon="-71.2297662"><ele>5.6</ele></trkpt>
    <trkpt lat="46.8215789" lon="-71.2298274"><ele>5.6</ele></trkpt>
    <trkpt lat="46.8216320" lon="-71.2299646"><ele>5.6</ele></trkpt>
    <trkpt lat="46.8217095" lon="-71.2302865"><ele>5.7</ele></trkpt>
    <trkpt lat="46.8217516" lon="-71.2304020"><ele>5.7</ele></trkpt>
    <trkpt lat="46.8218426" lon="-71.2305647"><ele>5.7</ele></trkpt>
    <trkpt lat="46.8220445" lon="-71.2308266"><ele>5.9</ele></trkpt>
    <trkpt lat="46.8221435" lon="-71.2309389"><ele>6.0</ele></trkpt>
    <trkpt lat="46.8226878" lon="-71.2317788"><ele>7.0</ele></trkpt>
    <trkpt lat="46.8227684" lon="-71.2319201"><ele>7.1</ele></trkpt>
    <trkpt lat="46.8230697" lon="-71.2325420"><ele>7.5</ele></trkpt>
    <trkpt lat="46.8232427" lon="-71.2329417"><ele>7.9</ele></trkpt>
    <trkpt lat="46.8232828" lon="-71.2329936"><ele>8.0</ele></trkpt>
    <trkpt lat="46.8233451" lon="-71.2330435"><ele>8.1</ele></trkpt>
    <trkpt lat="46.8234092" lon="-71.2332011"><ele>8.3</ele></trkpt>
    <trkpt lat="46.8234350" lon="-71.2333539"><ele>8.4</ele></trkpt>
    <trkpt lat="46.8236119" lon="-71.2337807"><ele>8.4</ele></trkpt>
    <trkpt lat="46.8237254" lon="-71.2341089"><ele>8.5</ele></trkpt>
    <trkpt lat="46.8237909" lon="-71.2342341"><ele>8.6</ele></trkpt>
    <trkpt lat="46.8239210" lon="-71.2344150"><ele>8.7</ele></trkpt>
    <trkpt lat="46.8239977" lon="-71.2345608"><ele>8.7</ele></trkpt>
    <trkpt lat="46.8240676" lon="-71.2347444"><ele>8.8</ele></trkpt>
    <trkpt lat="46.8242290" lon="-71.2352715"><ele>8.9</ele></trkpt>
    <trkpt lat="46.8242687" lon="-71.2354732"><ele>8.8</ele></trkpt>
    <trkpt lat="46.8242875" lon="-71.2357077"><ele>8.7</ele></trkpt>
    <trkpt lat="46.8242898" lon="-71.2359961"><ele>8.5</ele></trkpt>
    <trkpt lat="46.8242639" lon="-71.2365194"><ele>8.2</ele></trkpt>
    <trkpt lat="46.8242727" lon="-71.2369387"><ele>8.2</ele></trkpt>
    <trkpt lat="46.8241755" lon="-71.2375791"><ele>8.4</ele></trkpt>
    <trkpt lat="46.8241843" lon="-71.2377090"><ele>8.5</ele></trkpt>
    <trkpt lat="46.8242125" lon="-71.2378055"><ele>8.7</ele></trkpt>
    <trkpt lat="46.8242678" lon="-71.2379087"><ele>8.9</ele></trkpt>
    <trkpt lat="46.8243799" lon="-71.2380404"><ele>9.2</ele></trkpt>
    <trkpt lat="46.8244234" lon="-71.2380872"><ele>9.3</ele></trkpt>
    <trkpt lat="46.8245397" lon="-71.2381581"><ele>9.5</ele></trkpt>
    <trkpt lat="46.8246996" lon="-71.2381955"><ele>9.8</ele></trkpt>
    <trkpt lat="46.8251496" lon="-71.2381639"><ele>10.0</ele></trkpt>
    <trkpt lat="46.8252176" lon="-71.2381955"><ele>9.9</ele></trkpt>
    <trkpt lat="46.8252870" lon="-71.2382788"><ele>9.9</ele></trkpt>
    <trkpt lat="46.8253687" lon="-71.2384188"><ele>9.9</ele></trkpt>
    <trkpt lat="46.8254007" lon="-71.2385125"><ele>9.9</ele></trkpt>
    <trkpt lat="46.8254963" lon="-71.2384424"><ele>10.1</ele></trkpt>
    <trkpt lat="46.8256405" lon="-71.2382077"><ele>10.3</ele></trkpt>
    <trkpt lat="46.8256905" lon="-71.2380988"><ele>10.3</ele></trkpt>
    <trkpt lat="46.8246752" lon="-71.2371604"><ele>10.7</ele></trkpt>
    <trkpt lat="46.8246746" lon="-71.2371377"><ele>10.7</ele></trkpt>
    <trkpt lat="46.8249903" lon="-71.2351968"><ele>10.4</ele></trkpt>
    <trkpt lat="46.8252150" lon="-71.2336833"><ele>10.1</ele></trkpt>
    <trkpt lat="46.8252693" lon="-71.2331910"><ele>10.0</ele></trkpt>
    <trkpt lat="46.8252663" lon="-71.2331693"><ele>10.0</ele></trkpt>
    <trkpt lat="46.8251229" lon="-71.2330590"><ele>9.9</ele></trkpt>
    <trkpt lat="46.8251168" lon="-71.2330429"><ele>9.9</ele></trkpt>
    <trkpt lat="46.8253077" lon="-71.2326290"><ele>9.8</ele></trkpt>
    <trkpt lat="46.8257972" lon="-71.2314742"><ele>9.8</ele></trkpt>
    <trkpt lat="46.8232038" lon="-71.2290974"><ele>6.8</ele></trkpt>
    <trkpt lat="46.8225567" lon="-71.2285252"><ele>6.2</ele></trkpt>
    <trkpt lat="46.8225568" lon="-71.2285062"><ele>6.2</ele></trkpt>
    <trkpt lat="46.8230602" lon="-71.2273239"><ele>6.3</ele></trkpt>
    <trkpt lat="46.8232546" lon="-71.2268819"><ele>6.3</ele></trkpt>
    <trkpt lat="46.8232668" lon="-71.2268766"><ele>6.3</ele></trkpt>
    <trkpt lat="46.8239009" lon="-71.2274788"><ele>6.9</ele></trkpt>
    <trkpt lat="46.8277808" lon="-71.2310181"><ele>10.8</ele></trkpt>
    <trkpt lat="46.8290712" lon="-71.2322208"><ele>12.2</ele></trkpt>
    <trkpt lat="46.8297146" lon="-71.2328019"><ele>12.3</ele></trkpt>
    <trkpt lat="46.8308093" lon="-71.2338164"><ele>13.0</ele></trkpt>
    <trkpt lat="46.8309999" lon="-71.2340148"><ele>13.0</ele></trkpt>
    <trkpt lat="46.8312446" lon="-71.2342369"><ele>13.0</ele></trkpt>
    <trkpt lat="46.8314813" lon="-71.2345202"><ele>12.9</ele></trkpt>
    <trkpt lat="46.8315957" lon="-71.2346826"><ele>12.9</ele></trkpt>
    <trkpt lat="46.8315234" lon="-71.2348330"><ele>12.8</ele></trkpt>
    <trkpt lat="46.8310167" lon="-71.2357214"><ele>12.9</ele></trkpt>
    <trkpt lat="46.8307227" lon="-71.2363187"><ele>13.1</ele></trkpt>
    <trkpt lat="46.8301073" lon="-71.2378011"><ele>13.6</ele></trkpt>
    <trkpt lat="46.8301139" lon="-71.2378192"><ele>13.6</ele></trkpt>
    <trkpt lat="46.8305706" lon="-71.2383323"><ele>13.6</ele></trkpt>
    <trkpt lat="46.8312740" lon="-71.2390197"><ele>13.7</ele></trkpt>
    <trkpt lat="46.8315922" lon="-71.2393165"><ele>13.7</ele></trkpt>
    <trkpt lat="46.8300701" lon="-71.2434886"><ele>13.3</ele></trkpt>
    <trkpt lat="46.8300576" lon="-71.2435051"><ele>13.3</ele></trkpt>
    <trkpt lat="46.8294210" lon="-71.2438728"><ele>13.3</ele></trkpt>
    <trkpt lat="46.8288653" lon="-71.2441818"><ele>13.0</ele></trkpt>
  </trkseg></trk>
</gpx>
